{"type":"FeatureCollection", "features": [
{"type":"Feature","geometry":{"type":"Polygon","coordinates":[[[9.75,53.55],[9.75,53.6],[9.75,53.65],[9.75,53.6],[9.8,53.6],[9.85,53.6],[9.9,53.6],[9.9,53.65],[9.95,53.65],[10,53.65],[10,53.7],[10.05,53.7],[10.1,53.7],[10.05,53.7],[10.1,53.7],[10.15,53.7],[10.15,53.75],[10.15,53.7],[10.15,53.75],[10.2,53.75],[10.2,53.7],[10.15,53.7],[10.15,53.65],[10.2,53.65],[10.2,53.6],[10.15,53.6],[10.15,53.55],[10.15,53.5],[10.2,53.5],[10.25,53.5],[10.25,53.45],[10.25,53.5],[10.25,53.45],[10.3,53.45],[10.35,53.45],[10.3,53.45],[10.35,53.45],[10.4,53.4],[10.45,53.4],[10.5,53.4],[10.5,53.35],[10.55,53.35],[10.6,53.35],[10.6,53.4],[10.6,53.45],[10.65,53.45],[10.7,53.45],[10.7,53.5],[10.75,53.5],[10.8,53.5],[10.8,53.55],[10.85,53.55],[10.8,53.55],[10.85,53.55],[10.8,53.55],[10.85,53.6],[10.85,53.55],[10.9,53.55],[10.9,53.6],[10.95,53.65],[10.95,53.7],[10.9,53.7],[10.85,53.7],[10.8,53.7],[10.8,53.75],[10.75,53.75],[10.75,53.8],[10.75,53.85],[10.8,53.9],[10.8,53.85],[10.8,53.9],[10.85,53.9],[10.9,53.9],[10.95,53.9],[10.9,53.9],[10.9,53.95],[10.95,54],[11.1,54.1],[11.15,54.1],[11.4,54.2],[11.6,54.3],[11.65,54.3],[11.65,54.35],[11.6,54.35],[11.55,54.4],[11.45,54.45],[11.4,54.45],[11.35,54.5],[11.3,54.5],[11.3,54.55],[11.2,54.55],[11.15,54.6],[11,54.55],[10.8,54.55],[10.75,54.5],[10.65,54.5],[10.6,54.5],[10.5,54.55],[10.45,54.55],[10.35,54.6],[10.3,54.6],[10.25,54.65],[10.2,54.7],[10.15,54.75],[10.1,54.75],[10.05,54.75],[9.95,54.8],[9.9,54.85],[9.75,54.8],[9.6,54.85],[9.65,54.9],[9.6,54.9],[9.5,54.85],[9.45,54.85],[9.4,54.85],[9.35,54.85],[9.4,54.85],[9.35,54.8],[9.3,54.8],[9.25,54.8],[9.25,54.85],[9.2,54.85],[9.15,54.85],[9.1,54.85],[9.05,54.85],[9.05,54.9],[9,54.9],[8.95,54.9],[8.9,54.9],[8.85,54.9],[8.8,54.9],[8.75,54.9],[8.7,54.9],[8.65,54.9],[8.55,54.9],[8.55,55],[8.5,55],[8.45,55.05],[8.5,55.05],[8.45,55.05],[8.4,55.05],[8.3,55.05],[8.05,55.1],[8.05,55.05],[8,55.05],[8,55],[7.95,55],[7.95,54.95],[7.95,54.9],[7.95,54.85],[7.95,54.8],[7.95,54.75],[7.95,54.65],[7.95,54.6],[8.05,54.5],[8.15,54.35],[8.1,54.35],[8.05,54.35],[8.05,54.4],[8,54.4],[7.95,54.4],[7.9,54.4],[7.85,54.4],[7.8,54.4],[7.75,54.4],[7.7,54.4],[7.7,54.35],[7.65,54.35],[7.6,54.35],[7.6,54.3],[7.55,54.3],[7.55,54.25],[7.5,54.2],[7.5,54.15],[7.55,54.15],[7.55,54.1],[7.6,54.1],[7.6,54.05],[7.65,54.05],[7.65,54],[7.7,54],[7.75,54],[7.85,54],[8.1,54.05],[8.3,54.05],[8.4,54.05],[8.5,54.05],[8.75,53.95],[8.8,53.9],[9,53.85],[9,53.9],[9.05,53.9],[9.1,53.9],[9.15,53.9],[9.2,53.9],[9.25,53.9],[9.25,53.85],[9.3,53.85],[9.35,53.85],[9.35,53.8],[9.4,53.8],[9.4,53.75],[9.45,53.75],[9.45,53.7],[9.5,53.7],[9.55,53.65],[9.55,53.6],[9.6,53.6],[9.65,53.6],[9.7,53.55],[9.75,53.55]]]},"properties":{"SN_L":"01"}},
{"type":"Feature","geometry":{"type":"MultiPolygon","coordinates":[[[[9.75,53.55],[9.8,53.55],[9.8,53.5],[9.75,53.5],[9.8,53.5],[9.8,53.45],[9.85,53.45],[9.9,53.45],[9.9,53.4],[9.95,53.4],[9.95,53.45],[9.95,53.4],[10,53.4],[9.95,53.4],[10,53.4],[10,53.45],[10,53.4],[10,53.45],[10.05,53.45],[10,53.45],[10.05,53.45],[10.1,53.45],[10.1,53.4],[10.15,53.4],[10.2,53.4],[10.25,53.4],[10.3,53.4],[10.3,53.45],[10.35,53.45],[10.3,53.45],[10.25,53.45],[10.25,53.5],[10.25,53.45],[10.25,53.5],[10.2,53.5],[10.15,53.5],[10.15,53.55],[10.15,53.6],[10.2,53.6],[10.2,53.65],[10.15,53.65],[10.15,53.7],[10.2,53.7],[10.2,53.75],[10.15,53.75],[10.15,53.7],[10.15,53.75],[10.15,53.7],[10.1,53.7],[10.05,53.7],[10.1,53.7],[10.05,53.7],[10,53.7],[10,53.65],[9.95,53.65],[9.9,53.65],[9.9,53.6],[9.85,53.6],[9.8,53.6],[9.75,53.6],[9.75,53.65],[9.75,53.6],[9.75,53.55]]],[[[8.6,53.85],[8.55,53.85],[8.55,53.9],[8.55,53.95],[8.45,54],[8.4,54.05],[8.3,54.05],[8.1,54.05],[8.2,54],[8.35,53.95],[8.45,53.9],[8.55,53.9],[8.55,53.85],[8.6,53.85]]]]},"properties":{"SN_L":"02"}},
{"type":"Feature","geometry":{"type":"MultiPolygon","coordinates":[[[[9.7,53.55],[9.65,53.6],[9.6,53.6],[9.55,53.6],[9.55,53.65],[9.5,53.7],[9.45,53.7],[9.45,53.75],[9.4,53.75],[9.4,53.8],[9.35,53.8],[9.35,53.85],[9.3,53.85],[9.25,53.85],[9.25,53.9],[9.2,53.9],[9.15,53.9],[9.1,53.9],[9.05,53.9],[9,53.9],[9,53.85],[8.8,53.9],[8.75,53.95],[8.5,54.05],[8.4,54.05],[8.45,54],[8.55,53.95],[8.55,53.9],[8.55,53.85],[8.6,53.85],[8.55,53.85],[8.55,53.9],[8.45,53.9],[8.35,53.95],[8.2,54],[8.1,54.05],[7.85,54],[7.75,54],[7.7,54],[7.65,54],[7.6,54],[7.6,53.95],[7.55,53.95],[7.5,53.95],[7.45,53.95],[7.4,53.95],[7.35,53.95],[7.3,53.95],[7.25,53.95],[7.2,53.95],[7.2,53.9],[7.15,53.9],[7.1,53.9],[7.05,53.9],[7,53.9],[6.95,53.9],[6.9,53.9],[6.85,53.9],[6.8,53.85],[6.75,53.85],[6.7,53.85],[6.65,53.85],[6.6,53.85],[6.6,53.8],[6.55,53.8],[6.5,53.8],[6.45,53.8],[6.4,53.75],[6.35,53.75],[6.35,53.7],[6.4,53.6],[6.55,53.6],[6.55,53.55],[6.6,53.55],[6.65,53.55],[6.65,53.5],[6.7,53.5],[6.75,53.5],[6.8,53.45],[6.85,53.45],[6.9,53.45],[6.9,53.4],[6.9,53.35],[6.95,53.35],[7,53.3],[7.05,53.3],[7.1,53.3],[7.15,53.3],[7.2,53.3],[7.2,53.25],[7.2,53.2],[7.25,53.2],[7.2,53.2],[7.2,53.15],[7.2,53.1],[7.2,53.05],[7.2,53],[7.2,52.95],[7.15,52.95],[7.15,52.9],[7.1,52.85],[7.05,52.8],[7.05,52.75],[7.05,52.7],[7.05,52.65],[7,52.65],[6.95,52.65],[6.9,52.65],[6.85,52.65],[6.8,52.65],[6.75,52.65],[6.7,52.65],[6.7,52.6],[6.75,52.6],[6.7,52.6],[6.75,52.55],[6.7,52.55],[6.7,52.5],[6.75,52.45],[6.8,52.45],[6.85,52.45],[6.9,52.45],[6.95,52.45],[7,52.45],[7,52.4],[7.05,52.4],[7.05,52.35],[7.05,52.3],[7.05,52.25],[7.1,52.25],[7.15,52.25],[7.2,52.25],[7.25,52.25],[7.3,52.25],[7.3,52.3],[7.35,52.3],[7.4,52.3],[7.45,52.3],[7.45,52.35],[7.5,52.35],[7.55,52.35],[7.55,52.4],[7.6,52.4],[7.55,52.4],[7.6,52.4],[7.6,52.45],[7.55,52.45],[7.6,52.45],[7.6,52.5],[7.6,52.45],[7.65,52.45],[7.7,52.45],[7.7,52.4],[7.75,52.4],[7.8,52.35],[7.85,52.35],[7.85,52.4],[7.9,52.4],[7.9,52.35],[7.95,52.35],[7.95,52.3],[8,52.3],[7.95,52.3],[7.95,52.25],[7.9,52.25],[7.95,52.25],[7.9,52.2],[7.95,52.2],[7.95,52.15],[8,52.15],[8,52.2],[8,52.15],[8.05,52.15],[8,52.15],[8,52.1],[7.95,52.1],[7.9,52.1],[7.9,52.05],[7.95,52.05],[8,52.05],[8.05,52.05],[8.1,52.05],[8.15,52.05],[8.15,52.1],[8.15,52.05],[8.2,52.05],[8.2,52.1],[8.25,52.1],[8.25,52.15],[8.3,52.15],[8.3,52.1],[8.3,52.15],[8.35,52.1],[8.4,52.1],[8.4,52.15],[8.45,52.15],[8.5,52.15],[8.5,52.2],[8.45,52.2],[8.45,52.25],[8.45,52.3],[8.45,52.35],[8.4,52.4],[8.35,52.4],[8.3,52.4],[8.3,52.45],[8.35,52.45],[8.4,52.45],[8.45,52.45],[8.45,52.5],[8.5,52.5],[8.55,52.5],[8.6,52.5],[8.65,52.55],[8.65,52.5],[8.7,52.5],[8.7,52.45],[8.7,52.4],[8.75,52.4],[8.8,52.4],[8.85,52.4],[8.9,52.4],[8.95,52.4],[8.95,52.45],[9,52.45],[9,52.5],[9.05,52.5],[9.1,52.5],[9.15,52.5],[9.1,52.45],[9.15,52.45],[9.1,52.45],[9.1,52.4],[9.15,52.4],[9.1,52.4],[9.1,52.35],[9.05,52.35],[9,52.35],[9,52.3],[8.95,52.3],[8.95,52.25],[9,52.25],[8.95,52.25],[9,52.25],[9.05,52.25],[9.1,52.25],[9.05,52.25],[9.05,52.2],[9.05,52.25],[9.05,52.2],[9,52.2],[9,52.15],[9.05,52.15],[9.1,52.15],[9.15,52.15],[9.15,52.1],[9.2,52.1],[9.2,52.05],[9.15,52.05],[9.2,52.05],[9.15,52.05],[9.2,52.05],[9.15,52.05],[9.2,52.05],[9.2,52],[9.15,52],[9.2,52],[9.2,51.95],[9.25,51.95],[9.25,52],[9.25,51.95],[9.25,52],[9.25,51.95],[9.3,51.95],[9.25,51.95],[9.3,51.95],[9.25,51.95],[9.3,51.95],[9.25,51.95],[9.3,51.95],[9.25,51.95],[9.3,51.95],[9.3,51.9],[9.35,51.9],[9.35,51.85],[9.4,51.85],[9.45,51.85],[9.45,51.8],[9.4,51.8],[9.4,51.75],[9.4,51.7],[9.4,51.65],[9.35,51.65],[9.4,51.65],[9.45,51.65],[9.5,51.65],[9.55,51.65],[9.55,51.6],[9.6,51.65],[9.65,51.65],[9.65,51.6],[9.7,51.6],[9.7,51.55],[9.65,51.55],[9.65,51.6],[9.65,51.55],[9.6,51.55],[9.6,51.5],[9.65,51.5],[9.65,51.45],[9.65,51.4],[9.6,51.4],[9.55,51.4],[9.55,51.35],[9.6,51.35],[9.55,51.35],[9.6,51.35],[9.65,51.35],[9.65,51.3],[9.7,51.3],[9.75,51.3],[9.8,51.35],[9.75,51.35],[9.75,51.3],[9.75,51.35],[9.75,51.3],[9.75,51.35],[9.7,51.35],[9.75,51.35],[9.75,51.4],[9.8,51.4],[9.85,51.4],[9.85,51.35],[9.85,51.4],[9.9,51.4],[9.95,51.4],[10,51.4],[10.05,51.4],[10.05,51.45],[10.05,51.4],[10.1,51.4],[10.1,51.45],[10.15,51.45],[10.2,51.45],[10.2,51.5],[10.2,51.45],[10.25,51.45],[10.25,51.5],[10.3,51.5],[10.35,51.5],[10.35,51.55],[10.4,51.55],[10.4,51.6],[10.35,51.6],[10.4,51.6],[10.45,51.6],[10.5,51.55],[10.55,51.55],[10.6,51.55],[10.6,51.6],[10.65,51.55],[10.65,51.6],[10.65,51.65],[10.7,51.65],[10.65,51.65],[10.65,51.7],[10.65,51.75],[10.6,51.75],[10.6,51.8],[10.55,51.8],[10.6,51.8],[10.6,51.85],[10.65,51.85],[10.65,51.9],[10.6,51.9],[10.6,51.95],[10.65,51.95],[10.6,51.95],[10.6,52],[10.55,52],[10.6,52],[10.65,52],[10.65,52.05],[10.7,52.05],[10.75,52.05],[10.8,52.05],[10.85,52.05],[10.9,52.05],[10.95,52.05],[10.95,52.1],[11,52.1],[11,52.15],[11.05,52.15],[11,52.2],[11.05,52.2],[11.1,52.2],[11.1,52.25],[11.05,52.25],[11.05,52.3],[11,52.3],[11.05,52.3],[11,52.3],[11,52.35],[11.05,52.35],[11.05,52.4],[11,52.4],[10.95,52.45],[10.95,52.5],[11,52.5],[10.95,52.55],[10.95,52.6],[11,52.6],[10.95,52.6],[11,52.6],[10.95,52.65],[10.95,52.6],[10.9,52.6],[10.95,52.6],[10.9,52.6],[10.9,52.65],[10.85,52.65],[10.85,52.7],[10.8,52.7],[10.8,52.75],[10.75,52.75],[10.75,52.8],[10.75,52.85],[10.8,52.85],[10.85,52.85],[10.9,52.85],[10.95,52.85],[10.95,52.9],[11,52.9],[11.05,52.9],[11.1,52.9],[11.15,52.9],[11.2,52.9],[11.25,52.9],[11.3,52.9],[11.3,52.85],[11.3,52.9],[11.35,52.9],[11.4,52.9],[11.45,52.9],[11.45,52.95],[11.5,52.95],[11.5,53],[11.55,53],[11.6,53],[11.6,53.05],[11.55,53.05],[11.5,53.05],[11.45,53.05],[11.45,53.1],[11.45,53.05],[11.4,53.05],[11.35,53.05],[11.3,53.05],[11.3,53.1],[11.25,53.1],[11.25,53.15],[11.2,53.15],[11.15,53.15],[11.2,53.15],[11.2,53.2],[11.15,53.2],[11.1,53.2],[11.05,53.25],[11.05,53.3],[11,53.3],[11,53.35],[11,53.3],[11,53.35],[10.95,53.35],[10.9,53.35],[10.9,53.3],[10.85,53.3],[10.85,53.35],[10.85,53.3],[10.8,53.3],[10.75,53.35],[10.7,53.35],[10.65,53.35],[10.6,53.35],[10.55,53.35],[10.5,53.35],[10.5,53.4],[10.45,53.4],[10.4,53.4],[10.35,53.45],[10.3,53.45],[10.3,53.4],[10.25,53.4],[10.2,53.4],[10.15,53.4],[10.1,53.4],[10.1,53.45],[10.05,53.45],[10,53.45],[10.05,53.45],[10,53.45],[10,53.4],[10,53.45],[10,53.4],[9.95,53.4],[10,53.4],[9.95,53.4],[9.95,53.45],[9.95,53.4],[9.9,53.4],[9.9,53.45],[9.85,53.45],[9.8,53.45],[9.8,53.5],[9.75,53.5],[9.8,53.5],[9.8,53.55],[9.75,53.55],[9.7,53.55]],[[8.55,53.55],[8.5,53.55],[8.5,53.6],[8.55,53.6],[8.6,53.6],[8.65,53.6],[8.6,53.6],[8.6,53.55],[8.65,53.55],[8.65,53.5],[8.6,53.5],[8.55,53.5],[8.5,53.5],[8.5,53.45],[8.5,53.5],[8.5,53.45],[8.5,53.5],[8.55,53.5],[8.55,53.55]],[[8.5,53.25],[8.5,53.2],[8.55,53.2],[8.6,53.2],[8.65,53.2],[8.7,53.2],[8.75,53.2],[8.75,53.15],[8.8,53.15],[8.85,53.15],[8.9,53.15],[8.95,53.15],[9,53.15],[9,53.1],[8.95,53.1],[9,53.1],[8.95,53.1],[8.95,53.05],[9,53.05],[8.95,53.05],[8.95,53],[8.95,53.05],[8.95,53],[8.9,53],[8.9,53.05],[8.85,53.05],[8.85,53],[8.8,53],[8.8,53.05],[8.75,53.05],[8.7,53.05],[8.7,53.1],[8.65,53.1],[8.65,53.15],[8.6,53.15],[8.55,53.2],[8.5,53.2],[8.5,53.25]]],[[[7.55,54.05],[7.45,54.15],[7.4,54.15],[7.4,54],[7.55,54.05]]]]},"properties":{"SN_L":"03"}},
{"type":"Feature","geometry":{"type":"MultiPolygon","coordinates":[[[[8.5,53.6],[8.5,53.55],[8.55,53.55],[8.55,53.5],[8.5,53.5],[8.5,53.45],[8.5,53.5],[8.5,53.45],[8.5,53.5],[8.55,53.5],[8.6,53.5],[8.65,53.5],[8.65,53.55],[8.6,53.55],[8.6,53.6],[8.65,53.6],[8.6,53.6],[8.55,53.6],[8.5,53.6]]],[[[8.5,53.25],[8.5,53.2],[8.55,53.2],[8.6,53.15],[8.65,53.15],[8.65,53.1],[8.7,53.1],[8.7,53.05],[8.75,53.05],[8.8,53.05],[8.8,53],[8.85,53],[8.85,53.05],[8.9,53.05],[8.9,53],[8.95,53],[8.95,53.05],[8.95,53],[8.95,53.05],[9,53.05],[8.95,53.05],[8.95,53.1],[9,53.1],[8.95,53.1],[9,53.1],[9,53.15],[8.95,53.15],[8.9,53.15],[8.85,53.15],[8.8,53.15],[8.75,53.15],[8.75,53.2],[8.7,53.2],[8.65,53.2],[8.6,53.2],[8.55,53.2],[8.5,53.2],[8.5,53.25]]]]},"properties":{"SN_L":"04"}},
{"type":"Feature","geometry":{"type":"MultiPolygon","coordinates":[[[[6.25,50.6],[6.2,50.6],[6.2,50.55],[6.15,50.55],[6.2,50.55],[6.25,50.55],[6.25,50.6]]],[[[7.05,52.25],[7,52.25],[7,52.2],[6.95,52.2],[6.9,52.2],[6.9,52.15],[6.85,52.15],[6.85,52.1],[6.8,52.1],[6.75,52.1],[6.75,52.05],[6.7,52.05],[6.75,52.05],[6.75,52],[6.8,52],[6.85,52],[6.85,51.95],[6.8,51.95],[6.75,51.9],[6.7,51.9],[6.65,51.9],[6.6,51.9],[6.55,51.9],[6.5,51.85],[6.45,51.85],[6.4,51.85],[6.35,51.85],[6.3,51.85],[6.25,51.85],[6.2,51.85],[6.2,51.9],[6.15,51.9],[6.1,51.9],[6.15,51.9],[6.15,51.85],[6.1,51.85],[6.05,51.85],[6,51.85],[5.95,51.85],[5.95,51.8],[6,51.8],[5.95,51.8],[6,51.8],[6,51.75],[5.95,51.75],[6,51.75],[6.05,51.75],[6.05,51.7],[6.05,51.65],[6.1,51.65],[6.1,51.6],[6.15,51.6],[6.15,51.55],[6.2,51.55],[6.2,51.5],[6.2,51.45],[6.2,51.4],[6.25,51.4],[6.2,51.4],[6.25,51.35],[6.2,51.35],[6.15,51.35],[6.15,51.3],[6.1,51.3],[6.1,51.25],[6.05,51.25],[6.1,51.25],[6.1,51.2],[6.05,51.2],[6.1,51.2],[6.1,51.15],[6.1,51.2],[6.15,51.2],[6.2,51.2],[6.15,51.15],[6.2,51.15],[6.15,51.15],[6.1,51.15],[6.1,51.1],[6.05,51.1],[6,51.1],[6,51.05],[5.95,51.05],[5.9,51.05],[5.85,51.05],[5.9,51.05],[5.85,51.05],[5.9,51],[5.9,50.95],[5.9,51],[5.95,51],[6,51],[6.05,51],[6,50.95],[6.05,50.95],[6.05,50.9],[6.1,50.9],[6.1,50.85],[6.05,50.85],[6,50.85],[6,50.8],[6.05,50.8],[6,50.8],[6.05,50.8],[6,50.8],[5.95,50.8],[6,50.8],[6.05,50.8],[6.05,50.75],[6,50.75],[6.05,50.75],[6.05,50.7],[6.05,50.75],[6.05,50.7],[6.1,50.7],[6.15,50.7],[6.15,50.65],[6.2,50.65],[6.25,50.65],[6.25,50.6],[6.25,50.55],[6.2,50.55],[6.2,50.5],[6.25,50.5],[6.3,50.5],[6.35,50.5],[6.35,50.45],[6.4,50.45],[6.35,50.45],[6.35,50.4],[6.35,50.35],[6.4,50.35],[6.4,50.3],[6.45,50.35],[6.4,50.35],[6.4,50.4],[6.4,50.35],[6.45,50.35],[6.5,50.35],[6.55,50.35],[6.55,50.4],[6.6,50.4],[6.6,50.35],[6.65,50.35],[6.6,50.35],[6.65,50.35],[6.7,50.35],[6.75,50.35],[6.8,50.35],[6.8,50.4],[6.75,50.4],[6.8,50.4],[6.75,50.4],[6.75,50.45],[6.75,50.5],[6.75,50.45],[6.75,50.5],[6.8,50.5],[6.8,50.45],[6.85,50.45],[6.9,50.45],[6.9,50.5],[6.9,50.55],[6.95,50.55],[6.9,50.55],[6.95,50.55],[7,50.55],[7,50.6],[7.05,50.6],[7.1,50.6],[7.15,50.6],[7.2,50.6],[7.2,50.65],[7.2,50.6],[7.2,50.65],[7.25,50.65],[7.25,50.6],[7.25,50.65],[7.3,50.65],[7.35,50.65],[7.35,50.7],[7.4,50.7],[7.45,50.7],[7.5,50.7],[7.5,50.75],[7.55,50.75],[7.6,50.75],[7.65,50.75],[7.65,50.8],[7.7,50.8],[7.65,50.8],[7.7,50.8],[7.7,50.85],[7.75,50.85],[7.75,50.9],[7.75,50.95],[7.8,50.95],[7.85,50.95],[7.85,50.9],[7.9,50.85],[7.95,50.85],[8,50.85],[7.95,50.85],[8,50.8],[7.95,50.8],[7.95,50.75],[8,50.75],[8.05,50.75],[8.05,50.7],[8.1,50.7],[8.15,50.7],[8.15,50.75],[8.15,50.8],[8.2,50.8],[8.2,50.85],[8.25,50.85],[8.25,50.9],[8.3,50.9],[8.3,50.85],[8.35,50.85],[8.4,50.9],[8.45,50.9],[8.45,50.95],[8.5,50.95],[8.45,50.95],[8.45,51],[8.5,51],[8.55,51],[8.55,51.05],[8.5,51.05],[8.55,51.05],[8.5,51.05],[8.55,51.05],[8.5,51.05],[8.5,51.1],[8.55,51.1],[8.6,51.1],[8.65,51.1],[8.7,51.1],[8.7,51.15],[8.75,51.15],[8.75,51.2],[8.75,51.25],[8.7,51.25],[8.7,51.3],[8.7,51.25],[8.65,51.25],[8.6,51.25],[8.55,51.25],[8.55,51.3],[8.6,51.3],[8.6,51.35],[8.65,51.35],[8.7,51.35],[8.7,51.4],[8.7,51.35],[8.75,51.35],[8.75,51.4],[8.8,51.4],[8.85,51.4],[8.9,51.4],[8.95,51.4],[8.95,51.45],[8.9,51.45],[8.9,51.5],[8.95,51.5],[9,51.5],[9.05,51.5],[9.1,51.5],[9.1,51.45],[9.15,51.45],[9.2,51.45],[9.2,51.5],[9.25,51.5],[9.3,51.5],[9.3,51.55],[9.35,51.55],[9.35,51.6],[9.35,51.65],[9.4,51.65],[9.45,51.65],[9.4,51.65],[9.35,51.65],[9.4,51.65],[9.4,51.7],[9.4,51.75],[9.4,51.8],[9.45,51.8],[9.45,51.85],[9.4,51.85],[9.35,51.85],[9.35,51.9],[9.3,51.9],[9.3,51.95],[9.25,51.95],[9.3,51.95],[9.25,51.95],[9.3,51.95],[9.25,51.95],[9.3,51.95],[9.25,51.95],[9.3,51.95],[9.25,51.95],[9.25,52],[9.25,51.95],[9.25,52],[9.25,51.95],[9.2,51.95],[9.2,52],[9.15,52],[9.2,52],[9.2,52.05],[9.15,52.05],[9.2,52.05],[9.15,52.05],[9.2,52.05],[9.15,52.05],[9.2,52.05],[9.2,52.1],[9.15,52.1],[9.15,52.15],[9.1,52.15],[9.05,52.15],[9,52.15],[9,52.2],[9.05,52.2],[9.05,52.25],[9.05,52.2],[9.05,52.25],[9.1,52.25],[9.05,52.25],[9,52.25],[8.95,52.25],[9,52.25],[8.95,52.25],[8.95,52.3],[9,52.3],[9,52.35],[9.05,52.35],[9.1,52.35],[9.1,52.4],[9.15,52.4],[9.1,52.4],[9.1,52.45],[9.15,52.45],[9.1,52.45],[9.15,52.5],[9.1,52.5],[9.05,52.5],[9,52.5],[9,52.45],[8.95,52.45],[8.95,52.4],[8.9,52.4],[8.85,52.4],[8.8,52.4],[8.75,52.4],[8.7,52.4],[8.7,52.45],[8.7,52.5],[8.65,52.5],[8.65,52.55],[8.6,52.5],[8.55,52.5],[8.5,52.5],[8.45,52.5],[8.45,52.45],[8.4,52.45],[8.35,52.45],[8.3,52.45],[8.3,52.4],[8.35,52.4],[8.4,52.4],[8.45,52.35],[8.45,52.3],[8.45,52.25],[8.45,52.2],[8.5,52.2],[8.5,52.15],[8.45,52.15],[8.4,52.15],[8.4,52.1],[8.35,52.1],[8.3,52.15],[8.3,52.1],[8.3,52.15],[8.25,52.15],[8.25,52.1],[8.2,52.1],[8.2,52.05],[8.15,52.05],[8.15,52.1],[8.15,52.05],[8.1,52.05],[8.05,52.05],[8,52.05],[7.95,52.05],[7.9,52.05],[7.9,52.1],[7.95,52.1],[8,52.1],[8,52.15],[8.05,52.15],[8,52.15],[8,52.2],[8,52.15],[7.95,52.15],[7.95,52.2],[7.9,52.2],[7.95,52.25],[7.9,52.25],[7.95,52.25],[7.95,52.3],[8,52.3],[7.95,52.3],[7.95,52.35],[7.9,52.35],[7.9,52.4],[7.85,52.4],[7.85,52.35],[7.8,52.35],[7.75,52.4],[7.7,52.4],[7.7,52.45],[7.65,52.45],[7.6,52.45],[7.6,52.5],[7.6,52.45],[7.55,52.45],[7.6,52.45],[7.6,52.4],[7.55,52.4],[7.6,52.4],[7.55,52.4],[7.55,52.35],[7.5,52.35],[7.45,52.35],[7.45,52.3],[7.4,52.3],[7.35,52.3],[7.3,52.3],[7.3,52.25],[7.25,52.25],[7.2,52.25],[7.15,52.25],[7.1,52.25],[7.05,52.25]]]]},"properties":{"SN_L":"05"}},
{"type":"Feature","geometry":{"type":"Polygon","coordinates":[[[9.45,51.65],[9.4,51.65],[9.35,51.65],[9.35,51.6],[9.35,51.55],[9.3,51.55],[9.3,51.5],[9.25,51.5],[9.2,51.5],[9.2,51.45],[9.15,51.45],[9.1,51.45],[9.1,51.5],[9.05,51.5],[9,51.5],[8.95,51.5],[8.9,51.5],[8.9,51.45],[8.95,51.45],[8.95,51.4],[8.9,51.4],[8.85,51.4],[8.8,51.4],[8.75,51.4],[8.75,51.35],[8.7,51.35],[8.7,51.4],[8.7,51.35],[8.65,51.35],[8.6,51.35],[8.6,51.3],[8.55,51.3],[8.55,51.25],[8.6,51.25],[8.65,51.25],[8.7,51.25],[8.7,51.3],[8.7,51.25],[8.75,51.25],[8.75,51.2],[8.75,51.15],[8.7,51.15],[8.7,51.1],[8.65,51.1],[8.6,51.1],[8.55,51.1],[8.5,51.1],[8.5,51.05],[8.55,51.05],[8.5,51.05],[8.55,51.05],[8.5,51.05],[8.55,51.05],[8.55,51],[8.5,51],[8.45,51],[8.45,50.95],[8.5,50.95],[8.45,50.95],[8.45,50.9],[8.4,50.9],[8.35,50.85],[8.3,50.85],[8.3,50.9],[8.25,50.9],[8.25,50.85],[8.2,50.85],[8.2,50.8],[8.15,50.8],[8.15,50.75],[8.15,50.7],[8.1,50.7],[8.1,50.65],[8.15,50.65],[8.15,50.6],[8.15,50.55],[8.1,50.55],[8.05,50.55],[8,50.55],[8,50.5],[8,50.45],[8,50.4],[7.95,50.4],[8,50.4],[8.05,50.4],[8.05,50.35],[8.05,50.4],[8.05,50.35],[8.1,50.35],[8.05,50.35],[8.1,50.35],[8.1,50.3],[8.1,50.25],[8.05,50.25],[8,50.25],[8.05,50.25],[8.05,50.2],[8,50.2],[8,50.25],[7.95,50.25],[7.95,50.2],[7.9,50.2],[7.9,50.15],[7.95,50.15],[7.9,50.15],[7.95,50.1],[7.9,50.1],[7.95,50.1],[7.9,50.1],[7.85,50.1],[7.85,50.15],[7.85,50.1],[7.8,50.1],[7.8,50.05],[7.75,50.05],[7.8,50.05],[7.85,50],[7.9,49.95],[7.95,49.95],[7.95,50],[8,50],[8.05,50],[8.1,50],[8.15,50],[8.15,50.05],[8.2,50.05],[8.25,50.05],[8.25,50],[8.3,50],[8.3,49.95],[8.35,49.95],[8.35,49.9],[8.35,49.85],[8.4,49.85],[8.4,49.8],[8.4,49.75],[8.45,49.75],[8.5,49.75],[8.45,49.75],[8.45,49.7],[8.4,49.7],[8.35,49.7],[8.35,49.65],[8.4,49.65],[8.4,49.6],[8.45,49.6],[8.5,49.6],[8.45,49.6],[8.5,49.6],[8.5,49.55],[8.55,49.55],[8.55,49.5],[8.6,49.5],[8.6,49.55],[8.6,49.6],[8.65,49.6],[8.7,49.65],[8.7,49.6],[8.65,49.6],[8.7,49.6],[8.7,49.55],[8.75,49.5],[8.8,49.5],[8.8,49.55],[8.8,49.5],[8.85,49.5],[8.9,49.5],[8.9,49.45],[8.85,49.45],[8.85,49.5],[8.85,49.45],[8.8,49.45],[8.85,49.45],[8.85,49.4],[8.8,49.4],[8.85,49.4],[8.9,49.4],[8.9,49.45],[8.95,49.45],[8.95,49.5],[9,49.5],[9.05,49.5],[9.05,49.55],[9.1,49.5],[9.1,49.55],[9.1,49.5],[9.15,49.5],[9.1,49.55],[9.05,49.55],[9.1,49.55],[9.1,49.6],[9.05,49.6],[9.1,49.65],[9.1,49.7],[9.15,49.7],[9.1,49.7],[9.15,49.7],[9.15,49.75],[9.1,49.75],[9.1,49.8],[9.15,49.8],[9.1,49.8],[9.1,49.85],[9.05,49.85],[9.05,49.9],[9,49.9],[9.05,49.9],[9.05,49.95],[9,49.95],[9.05,49.95],[9,49.95],[9,50],[9.05,50],[9.05,50.05],[9,50.05],[9,50.1],[9.05,50.1],[9.1,50.1],[9.1,50.15],[9.15,50.1],[9.2,50.1],[9.2,50.15],[9.25,50.15],[9.3,50.15],[9.35,50.15],[9.4,50.15],[9.4,50.1],[9.45,50.1],[9.5,50.1],[9.5,50.15],[9.55,50.15],[9.5,50.15],[9.5,50.2],[9.5,50.25],[9.55,50.25],[9.55,50.2],[9.55,50.25],[9.6,50.25],[9.6,50.2],[9.6,50.25],[9.65,50.25],[9.7,50.3],[9.75,50.3],[9.75,50.35],[9.75,50.4],[9.75,50.45],[9.8,50.4],[9.8,50.45],[9.8,50.4],[9.85,50.4],[9.9,50.4],[9.95,50.4],[9.95,50.45],[10,50.45],[10,50.5],[10.05,50.5],[10.05,50.55],[10.05,50.6],[10.05,50.65],[10.05,50.6],[10.1,50.6],[10.1,50.65],[10.05,50.65],[10.05,50.7],[10.05,50.65],[10,50.65],[10,50.7],[10,50.65],[9.95,50.65],[9.9,50.65],[9.9,50.7],[9.95,50.7],[9.95,50.75],[9.9,50.75],[9.95,50.75],[9.95,50.8],[9.95,50.75],[9.95,50.8],[9.95,50.85],[10,50.85],[10.05,50.85],[10,50.85],[10.05,50.85],[10.05,50.9],[10,50.9],[9.95,50.9],[10,50.9],[10,50.95],[9.95,50.95],[9.95,50.9],[9.95,50.95],[10,50.95],[10.05,50.95],[10,51],[10.05,51],[10.1,51],[10.15,51],[10.2,51],[10.2,51.05],[10.15,51.05],[10.15,51.1],[10.2,51.1],[10.15,51.1],[10.15,51.15],[10.1,51.15],[10.15,51.15],[10.2,51.15],[10.2,51.1],[10.2,51.15],[10.25,51.15],[10.25,51.2],[10.2,51.2],[10.15,51.2],[10.1,51.2],[10.1,51.25],[10.1,51.2],[10.05,51.2],[10.05,51.25],[10.1,51.25],[10.05,51.25],[10.05,51.3],[10,51.3],[9.95,51.3],[10,51.3],[9.95,51.3],[9.95,51.35],[9.9,51.35],[9.95,51.35],[9.95,51.4],[9.9,51.4],[9.85,51.4],[9.85,51.35],[9.85,51.4],[9.8,51.4],[9.75,51.4],[9.75,51.35],[9.7,51.35],[9.75,51.35],[9.75,51.3],[9.75,51.35],[9.75,51.3],[9.75,51.35],[9.8,51.35],[9.75,51.3],[9.7,51.3],[9.65,51.3],[9.65,51.35],[9.6,51.35],[9.55,51.35],[9.6,51.35],[9.55,51.35],[9.55,51.4],[9.6,51.4],[9.65,51.4],[9.65,51.45],[9.65,51.5],[9.6,51.5],[9.6,51.55],[9.65,51.55],[9.65,51.6],[9.65,51.55],[9.7,51.55],[9.7,51.6],[9.65,51.6],[9.65,51.65],[9.6,51.65],[9.55,51.6],[9.55,51.65],[9.5,51.65],[9.45,51.65]]]},"properties":{"SN_L":"06"}},
{"type":"Feature","geometry":{"type":"Polygon","coordinates":[[[6.4,50.3],[6.35,50.3],[6.3,50.3],[6.3,50.25],[6.25,50.25],[6.2,50.25],[6.15,50.25],[6.2,50.25],[6.15,50.25],[6.15,50.2],[6.2,50.2],[6.15,50.2],[6.15,50.15],[6.15,50.2],[6.15,50.15],[6.15,50.1],[6.1,50.1],[6.1,50.05],[6.1,50.1],[6.15,50.05],[6.1,50.05],[6.15,50.05],[6.15,50],[6.15,49.95],[6.2,49.95],[6.25,49.95],[6.2,49.95],[6.25,49.95],[6.2,49.95],[6.2,49.9],[6.25,49.9],[6.3,49.9],[6.3,49.85],[6.35,49.85],[6.4,49.85],[6.4,49.8],[6.45,49.8],[6.5,49.8],[6.55,49.8],[6.5,49.8],[6.5,49.75],[6.5,49.7],[6.5,49.75],[6.5,49.7],[6.45,49.7],[6.45,49.65],[6.4,49.65],[6.4,49.6],[6.35,49.6],[6.4,49.6],[6.35,49.6],[6.35,49.55],[6.4,49.55],[6.45,49.55],[6.5,49.55],[6.55,49.55],[6.6,49.55],[6.6,49.5],[6.6,49.55],[6.65,49.55],[6.7,49.55],[6.75,49.55],[6.8,49.55],[6.8,49.6],[6.85,49.6],[6.9,49.6],[6.95,49.6],[6.95,49.65],[7,49.65],[7,49.6],[7,49.65],[7.05,49.65],[7.05,49.6],[7.1,49.6],[7.15,49.6],[7.2,49.6],[7.15,49.6],[7.2,49.6],[7.2,49.55],[7.25,49.55],[7.25,49.6],[7.25,49.55],[7.3,49.55],[7.3,49.5],[7.3,49.45],[7.25,49.45],[7.25,49.4],[7.3,49.4],[7.35,49.4],[7.35,49.35],[7.35,49.4],[7.35,49.35],[7.4,49.35],[7.4,49.3],[7.35,49.3],[7.35,49.25],[7.3,49.25],[7.35,49.25],[7.3,49.25],[7.3,49.2],[7.35,49.2],[7.35,49.15],[7.4,49.15],[7.45,49.2],[7.45,49.15],[7.5,49.15],[7.5,49.1],[7.55,49.1],[7.6,49.1],[7.6,49.05],[7.65,49.05],[7.7,49.05],[7.75,49.05],[7.8,49.05],[7.85,49.05],[7.9,49.05],[7.95,49.05],[8,49.05],[8,49],[8.05,49],[8.1,49],[8.15,49],[8.2,49],[8.2,48.95],[8.2,49],[8.25,48.95],[8.25,49],[8.3,49],[8.3,49.05],[8.35,49.05],[8.35,49.1],[8.35,49.15],[8.4,49.2],[8.4,49.25],[8.4,49.2],[8.4,49.25],[8.45,49.25],[8.45,49.3],[8.5,49.3],[8.45,49.3],[8.45,49.35],[8.5,49.35],[8.5,49.4],[8.45,49.35],[8.45,49.4],[8.5,49.4],[8.5,49.45],[8.45,49.45],[8.45,49.5],[8.4,49.55],[8.4,49.6],[8.4,49.65],[8.35,49.65],[8.35,49.7],[8.4,49.7],[8.45,49.7],[8.45,49.75],[8.5,49.75],[8.45,49.75],[8.4,49.75],[8.4,49.8],[8.4,49.85],[8.35,49.85],[8.35,49.9],[8.35,49.95],[8.3,49.95],[8.3,50],[8.25,50],[8.25,50.05],[8.2,50.05],[8.15,50.05],[8.15,50],[8.1,50],[8.05,50],[8,50],[7.95,50],[7.95,49.95],[7.9,49.95],[7.85,50],[7.8,50.05],[7.75,50.05],[7.8,50.05],[7.8,50.1],[7.85,50.1],[7.85,50.15],[7.85,50.1],[7.9,50.1],[7.95,50.1],[7.9,50.1],[7.95,50.1],[7.9,50.15],[7.95,50.15],[7.9,50.15],[7.9,50.2],[7.95,50.2],[7.95,50.25],[8,50.25],[8,50.2],[8.05,50.2],[8.05,50.25],[8,50.25],[8.05,50.25],[8.1,50.25],[8.1,50.3],[8.1,50.35],[8.05,50.35],[8.1,50.35],[8.05,50.35],[8.05,50.4],[8.05,50.35],[8.05,50.4],[8,50.4],[7.95,50.4],[8,50.4],[8,50.45],[8,50.5],[8,50.55],[8.05,50.55],[8.1,50.55],[8.15,50.55],[8.15,50.6],[8.15,50.65],[8.1,50.65],[8.1,50.7],[8.15,50.7],[8.1,50.7],[8.05,50.7],[8.05,50.75],[8,50.75],[7.95,50.75],[7.95,50.8],[8,50.8],[7.95,50.85],[8,50.85],[7.95,50.85],[7.9,50.85],[7.85,50.9],[7.85,50.95],[7.8,50.95],[7.75,50.95],[7.75,50.9],[7.75,50.85],[7.7,50.85],[7.7,50.8],[7.65,50.8],[7.7,50.8],[7.65,50.8],[7.65,50.75],[7.6,50.75],[7.55,50.75],[7.5,50.75],[7.5,50.7],[7.45,50.7],[7.4,50.7],[7.35,50.7],[7.35,50.65],[7.3,50.65],[7.25,50.65],[7.25,50.6],[7.25,50.65],[7.2,50.65],[7.2,50.6],[7.2,50.65],[7.2,50.6],[7.15,50.6],[7.1,50.6],[7.05,50.6],[7,50.6],[7,50.55],[6.95,50.55],[6.9,50.55],[6.95,50.55],[6.9,50.55],[6.9,50.5],[6.9,50.45],[6.85,50.45],[6.8,50.45],[6.8,50.5],[6.75,50.5],[6.75,50.45],[6.75,50.5],[6.75,50.45],[6.75,50.4],[6.8,50.4],[6.75,50.4],[6.8,50.4],[6.8,50.35],[6.75,50.35],[6.7,50.35],[6.65,50.35],[6.6,50.35],[6.65,50.35],[6.6,50.35],[6.6,50.4],[6.55,50.4],[6.55,50.35],[6.5,50.35],[6.45,50.35],[6.4,50.35],[6.4,50.4],[6.4,50.35],[6.45,50.35],[6.4,50.3]]]},"properties":{"SN_L":"07"}},
{"type":"Feature","geometry":{"type":"Polygon","coordinates":[[[8.4,49.6],[8.4,49.55],[8.45,49.5],[8.45,49.45],[8.5,49.45],[8.5,49.4],[8.45,49.4],[8.45,49.35],[8.5,49.4],[8.5,49.35],[8.45,49.35],[8.45,49.3],[8.5,49.3],[8.45,49.3],[8.45,49.25],[8.4,49.25],[8.4,49.2],[8.4,49.25],[8.4,49.2],[8.35,49.15],[8.35,49.1],[8.35,49.05],[8.3,49.05],[8.3,49],[8.25,49],[8.25,48.95],[8.2,48.95],[8.15,48.9],[8.1,48.85],[8.1,48.8],[8.05,48.8],[8,48.75],[7.95,48.75],[7.95,48.7],[7.9,48.7],[7.9,48.65],[7.85,48.65],[7.85,48.6],[7.8,48.6],[7.8,48.55],[7.8,48.5],[7.75,48.5],[7.75,48.45],[7.75,48.4],[7.75,48.35],[7.75,48.3],[7.7,48.3],[7.7,48.25],[7.65,48.25],[7.65,48.2],[7.6,48.15],[7.6,48.1],[7.55,48.1],[7.55,48.05],[7.6,48],[7.6,47.95],[7.6,47.9],[7.55,47.9],[7.55,47.85],[7.55,47.8],[7.55,47.75],[7.55,47.7],[7.5,47.7],[7.5,47.65],[7.55,47.65],[7.55,47.6],[7.6,47.6],[7.65,47.6],[7.7,47.6],[7.65,47.6],[7.7,47.6],[7.7,47.55],[7.65,47.55],[7.7,47.55],[7.75,47.55],[7.8,47.55],[7.8,47.6],[7.85,47.6],[7.9,47.6],[7.9,47.55],[7.95,47.55],[8,47.55],[8.05,47.55],[8.1,47.55],[8.1,47.6],[8.15,47.6],[8.2,47.6],[8.25,47.6],[8.3,47.6],[8.35,47.55],[8.4,47.55],[8.4,47.6],[8.4,47.55],[8.45,47.55],[8.5,47.6],[8.45,47.6],[8.5,47.6],[8.5,47.65],[8.55,47.65],[8.55,47.6],[8.6,47.6],[8.6,47.65],[8.65,47.65],[8.6,47.65],[8.55,47.65],[8.5,47.65],[8.45,47.65],[8.5,47.65],[8.45,47.65],[8.5,47.65],[8.45,47.65],[8.4,47.65],[8.4,47.7],[8.45,47.7],[8.45,47.75],[8.5,47.75],[8.5,47.8],[8.5,47.75],[8.5,47.8],[8.55,47.8],[8.6,47.8],[8.55,47.8],[8.6,47.8],[8.55,47.8],[8.6,47.8],[8.6,47.75],[8.65,47.75],[8.65,47.8],[8.7,47.8],[8.7,47.75],[8.75,47.75],[8.7,47.75],[8.7,47.7],[8.75,47.7],[8.8,47.7],[8.75,47.7],[8.8,47.7],[8.8,47.75],[8.8,47.7],[8.85,47.7],[8.8,47.7],[8.85,47.7],[8.9,47.7],[8.85,47.7],[8.85,47.65],[8.9,47.65],[8.95,47.65],[9,47.7],[9.05,47.7],[9.1,47.7],[9.1,47.65],[9.15,47.65],[9.2,47.65],[9.25,47.65],[9.4,47.6],[9.5,47.55],[9.55,47.55],[9.6,47.6],[9.65,47.6],[9.7,47.6],[9.75,47.6],[9.75,47.65],[9.8,47.65],[9.85,47.65],[9.85,47.7],[9.9,47.65],[9.95,47.65],[10,47.65],[10,47.7],[10.05,47.7],[10.05,47.65],[10.05,47.7],[10.05,47.65],[10.1,47.65],[10.05,47.65],[10.1,47.65],[10.05,47.65],[10.1,47.65],[10.15,47.7],[10.1,47.7],[10.1,47.75],[10.1,47.8],[10.05,47.8],[10.1,47.8],[10.05,47.8],[10.1,47.8],[10.15,47.8],[10.1,47.85],[10.1,47.9],[10.1,47.95],[10.1,48],[10.15,48],[10.15,48.05],[10.15,48.1],[10.1,48.1],[10.1,48.15],[10.1,48.2],[10.05,48.2],[10.05,48.25],[10.05,48.3],[10,48.3],[10,48.35],[9.95,48.35],[9.95,48.4],[10,48.4],[10.05,48.4],[10.05,48.45],[10.1,48.45],[10.1,48.5],[10.1,48.45],[10.15,48.45],[10.2,48.45],[10.15,48.45],[10.2,48.45],[10.2,48.5],[10.25,48.5],[10.3,48.5],[10.3,48.55],[10.3,48.6],[10.3,48.65],[10.25,48.65],[10.25,48.7],[10.3,48.7],[10.35,48.7],[10.35,48.65],[10.4,48.65],[10.4,48.7],[10.45,48.7],[10.4,48.7],[10.45,48.65],[10.4,48.65],[10.45,48.65],[10.5,48.7],[10.45,48.7],[10.5,48.7],[10.45,48.7],[10.45,48.75],[10.4,48.75],[10.45,48.75],[10.4,48.75],[10.4,48.8],[10.4,48.75],[10.45,48.75],[10.45,48.8],[10.4,48.8],[10.45,48.8],[10.45,48.85],[10.45,48.9],[10.4,48.9],[10.45,48.9],[10.45,48.95],[10.4,48.95],[10.4,49],[10.35,49],[10.35,49.05],[10.3,49.05],[10.25,49.05],[10.3,49.05],[10.25,49.05],[10.25,49.1],[10.2,49.1],[10.25,49.1],[10.25,49.15],[10.2,49.15],[10.2,49.2],[10.15,49.2],[10.1,49.2],[10.15,49.2],[10.15,49.25],[10.1,49.25],[10.15,49.25],[10.1,49.25],[10.1,49.3],[10.15,49.3],[10.1,49.25],[10.15,49.25],[10.15,49.3],[10.15,49.35],[10.15,49.3],[10.1,49.35],[10.1,49.4],[10.15,49.4],[10.15,49.45],[10.1,49.45],[10.1,49.5],[10.1,49.55],[10.05,49.55],[10.05,49.5],[10,49.5],[9.95,49.5],[9.9,49.5],[9.95,49.5],[9.9,49.5],[9.9,49.55],[9.95,49.55],[9.9,49.55],[9.95,49.55],[9.9,49.55],[9.9,49.6],[9.85,49.55],[9.8,49.55],[9.85,49.55],[9.85,49.6],[9.85,49.65],[9.8,49.65],[9.85,49.65],[9.8,49.65],[9.85,49.65],[9.85,49.7],[9.8,49.7],[9.8,49.75],[9.8,49.7],[9.75,49.7],[9.7,49.7],[9.7,49.75],[9.7,49.7],[9.65,49.7],[9.7,49.7],[9.65,49.7],[9.65,49.75],[9.65,49.8],[9.6,49.8],[9.55,49.8],[9.55,49.75],[9.5,49.75],[9.5,49.8],[9.45,49.8],[9.45,49.75],[9.45,49.8],[9.4,49.8],[9.4,49.75],[9.4,49.8],[9.35,49.8],[9.35,49.75],[9.3,49.75],[9.35,49.75],[9.35,49.7],[9.4,49.7],[9.4,49.75],[9.4,49.7],[9.4,49.65],[9.35,49.65],[9.3,49.65],[9.25,49.65],[9.3,49.6],[9.25,49.6],[9.2,49.6],[9.2,49.55],[9.2,49.6],[9.2,49.55],[9.15,49.6],[9.1,49.55],[9.1,49.6],[9.1,49.55],[9.05,49.55],[9.1,49.55],[9.15,49.5],[9.1,49.5],[9.1,49.55],[9.1,49.5],[9.05,49.55],[9.05,49.5],[9,49.5],[8.95,49.5],[8.95,49.45],[8.9,49.45],[8.9,49.4],[8.85,49.4],[8.8,49.4],[8.85,49.4],[8.85,49.45],[8.8,49.45],[8.85,49.45],[8.85,49.5],[8.85,49.45],[8.9,49.45],[8.9,49.5],[8.85,49.5],[8.8,49.5],[8.8,49.55],[8.8,49.5],[8.75,49.5],[8.7,49.55],[8.7,49.6],[8.65,49.6],[8.7,49.6],[8.7,49.65],[8.65,49.6],[8.6,49.6],[8.6,49.55],[8.6,49.5],[8.55,49.5],[8.55,49.55],[8.5,49.55],[8.5,49.6],[8.45,49.6],[8.5,49.6],[8.45,49.6],[8.4,49.6]]]},"properties":{"SN_L":"08"}},
{"type":"Feature","geometry":{"type":"Polygon","coordinates":[[[9.1,49.6],[9.1,49.55],[9.15,49.6],[9.2,49.55],[9.2,49.6],[9.2,49.55],[9.2,49.6],[9.25,49.6],[9.3,49.6],[9.25,49.65],[9.3,49.65],[9.35,49.65],[9.4,49.65],[9.4,49.7],[9.4,49.75],[9.4,49.7],[9.35,49.7],[9.35,49.75],[9.3,49.75],[9.35,49.75],[9.35,49.8],[9.4,49.8],[9.4,49.75],[9.4,49.8],[9.45,49.8],[9.45,49.75],[9.45,49.8],[9.5,49.8],[9.5,49.75],[9.55,49.75],[9.55,49.8],[9.6,49.8],[9.65,49.8],[9.65,49.75],[9.65,49.7],[9.7,49.7],[9.65,49.7],[9.7,49.7],[9.7,49.75],[9.7,49.7],[9.75,49.7],[9.8,49.7],[9.8,49.75],[9.8,49.7],[9.85,49.7],[9.85,49.65],[9.8,49.65],[9.85,49.65],[9.8,49.65],[9.85,49.65],[9.85,49.6],[9.85,49.55],[9.8,49.55],[9.85,49.55],[9.9,49.6],[9.9,49.55],[9.95,49.55],[9.9,49.55],[9.95,49.55],[9.9,49.55],[9.9,49.5],[9.95,49.5],[9.9,49.5],[9.95,49.5],[10,49.5],[10.05,49.5],[10.05,49.55],[10.1,49.55],[10.1,49.5],[10.1,49.45],[10.15,49.45],[10.15,49.4],[10.1,49.4],[10.1,49.35],[10.15,49.3],[10.15,49.35],[10.15,49.3],[10.15,49.25],[10.1,49.25],[10.15,49.3],[10.1,49.3],[10.1,49.25],[10.15,49.25],[10.1,49.25],[10.15,49.25],[10.15,49.2],[10.1,49.2],[10.15,49.2],[10.2,49.2],[10.2,49.15],[10.25,49.15],[10.25,49.1],[10.2,49.1],[10.25,49.1],[10.25,49.05],[10.3,49.05],[10.25,49.05],[10.3,49.05],[10.35,49.05],[10.35,49],[10.4,49],[10.4,48.95],[10.45,48.95],[10.45,48.9],[10.4,48.9],[10.45,48.9],[10.45,48.85],[10.45,48.8],[10.4,48.8],[10.45,48.8],[10.45,48.75],[10.4,48.75],[10.4,48.8],[10.4,48.75],[10.45,48.75],[10.4,48.75],[10.45,48.75],[10.45,48.7],[10.5,48.7],[10.45,48.7],[10.5,48.7],[10.45,48.65],[10.4,48.65],[10.45,48.65],[10.4,48.7],[10.45,48.7],[10.4,48.7],[10.4,48.65],[10.35,48.65],[10.35,48.7],[10.3,48.7],[10.25,48.7],[10.25,48.65],[10.3,48.65],[10.3,48.6],[10.3,48.55],[10.3,48.5],[10.25,48.5],[10.2,48.5],[10.2,48.45],[10.15,48.45],[10.2,48.45],[10.15,48.45],[10.1,48.45],[10.1,48.5],[10.1,48.45],[10.05,48.45],[10.05,48.4],[10,48.4],[9.95,48.4],[9.95,48.35],[10,48.35],[10,48.3],[10.05,48.3],[10.05,48.25],[10.05,48.2],[10.1,48.2],[10.1,48.15],[10.1,48.1],[10.15,48.1],[10.15,48.05],[10.15,48],[10.1,48],[10.1,47.95],[10.1,47.9],[10.1,47.85],[10.15,47.8],[10.1,47.8],[10.05,47.8],[10.1,47.8],[10.05,47.8],[10.1,47.8],[10.1,47.75],[10.1,47.7],[10.15,47.7],[10.1,47.65],[10.05,47.65],[10.1,47.65],[10.05,47.65],[10.1,47.65],[10.05,47.65],[10.05,47.7],[10.05,47.65],[10.05,47.7],[10,47.7],[10,47.65],[9.95,47.65],[9.9,47.65],[9.85,47.7],[9.85,47.65],[9.8,47.65],[9.75,47.65],[9.75,47.6],[9.7,47.6],[9.65,47.6],[9.6,47.6],[9.55,47.55],[9.7,47.5],[9.75,47.55],[9.75,47.6],[9.8,47.6],[9.85,47.6],[9.85,47.55],[9.8,47.55],[9.85,47.55],[9.8,47.55],[9.85,47.55],[9.9,47.55],[9.85,47.55],[9.9,47.55],[9.95,47.55],[9.95,47.5],[10,47.5],[10.05,47.5],[10.05,47.45],[10.1,47.45],[10.1,47.4],[10.05,47.4],[10.1,47.4],[10.1,47.35],[10.1,47.4],[10.15,47.35],[10.15,47.4],[10.2,47.4],[10.25,47.4],[10.25,47.35],[10.2,47.35],[10.2,47.3],[10.15,47.3],[10.2,47.3],[10.15,47.3],[10.2,47.3],[10.15,47.25],[10.2,47.25],[10.2,47.3],[10.25,47.25],[10.25,47.3],[10.3,47.3],[10.35,47.3],[10.35,47.35],[10.4,47.35],[10.4,47.4],[10.45,47.4],[10.45,47.45],[10.5,47.45],[10.45,47.45],[10.45,47.5],[10.45,47.55],[10.5,47.55],[10.55,47.55],[10.6,47.55],[10.65,47.55],[10.7,47.55],[10.75,47.55],[10.75,47.5],[10.8,47.5],[10.8,47.55],[10.85,47.55],[10.9,47.55],[10.9,47.5],[10.85,47.5],[10.9,47.5],[10.95,47.5],[10.95,47.45],[11,47.45],[11,47.4],[10.95,47.4],[11,47.4],[11.05,47.4],[11.1,47.4],[11.15,47.4],[11.2,47.4],[11.2,47.45],[11.25,47.45],[11.25,47.4],[11.2,47.4],[11.25,47.4],[11.3,47.4],[11.3,47.45],[11.35,47.45],[11.4,47.45],[11.4,47.5],[11.45,47.5],[11.5,47.5],[11.55,47.5],[11.6,47.5],[11.6,47.55],[11.6,47.6],[11.65,47.6],[11.7,47.6],[11.75,47.6],[11.8,47.6],[11.85,47.6],[11.9,47.6],[11.95,47.6],[12,47.6],[12,47.65],[12,47.6],[12.05,47.6],[12.1,47.6],[12.15,47.6],[12.2,47.6],[12.2,47.65],[12.15,47.7],[12.2,47.7],[12.25,47.7],[12.25,47.75],[12.25,47.7],[12.3,47.7],[12.35,47.7],[12.4,47.7],[12.45,47.7],[12.45,47.65],[12.5,47.65],[12.55,47.65],[12.6,47.65],[12.65,47.7],[12.65,47.65],[12.65,47.7],[12.7,47.7],[12.75,47.7],[12.75,47.65],[12.8,47.65],[12.75,47.65],[12.8,47.65],[12.8,47.6],[12.8,47.55],[12.85,47.55],[12.85,47.5],[12.9,47.5],[12.95,47.5],[12.95,47.45],[12.95,47.5],[13,47.5],[13,47.45],[13,47.5],[13.05,47.5],[13.05,47.55],[13.05,47.6],[13.1,47.6],[13.1,47.65],[13.1,47.7],[13.05,47.7],[13,47.7],[12.95,47.7],[12.9,47.7],[12.9,47.75],[12.95,47.75],[12.95,47.8],[13,47.8],[13,47.85],[13,47.9],[12.95,47.9],[12.95,47.95],[12.9,47.95],[12.85,47.95],[12.85,48],[12.85,48.05],[12.8,48.05],[12.75,48.05],[12.75,48.1],[12.75,48.15],[12.8,48.1],[12.8,48.15],[12.85,48.15],[12.85,48.2],[12.9,48.2],[12.95,48.2],[13,48.2],[13,48.25],[13.05,48.25],[13.1,48.3],[13.15,48.3],[13.2,48.3],[13.25,48.3],[13.35,48.3],[13.35,48.35],[13.4,48.35],[13.4,48.4],[13.45,48.45],[13.45,48.5],[13.45,48.55],[13.5,48.55],[13.45,48.55],[13.5,48.55],[13.5,48.6],[13.55,48.6],[13.55,48.55],[13.6,48.55],[13.65,48.55],[13.7,48.55],[13.7,48.5],[13.75,48.5],[13.75,48.55],[13.8,48.55],[13.8,48.6],[13.85,48.6],[13.8,48.65],[13.85,48.65],[13.8,48.65],[13.8,48.7],[13.85,48.7],[13.8,48.7],[13.8,48.75],[13.85,48.75],[13.8,48.75],[13.8,48.8],[13.8,48.85],[13.75,48.85],[13.75,48.9],[13.7,48.9],[13.65,48.9],[13.65,48.95],[13.6,48.95],[13.65,48.95],[13.6,48.95],[13.55,48.95],[13.5,48.95],[13.45,48.95],[13.4,49],[13.4,49.05],[13.35,49.05],[13.35,49.1],[13.3,49.1],[13.25,49.1],[13.2,49.1],[13.2,49.15],[13.15,49.15],[13.2,49.15],[13.15,49.15],[13.15,49.2],[13.1,49.2],[13.1,49.25],[13.05,49.25],[13.05,49.3],[13,49.3],[13,49.35],[12.95,49.35],[12.9,49.35],[12.85,49.35],[12.8,49.35],[12.75,49.35],[12.75,49.4],[12.7,49.4],[12.7,49.45],[12.65,49.45],[12.65,49.5],[12.65,49.55],[12.6,49.55],[12.55,49.55],[12.55,49.6],[12.6,49.6],[12.55,49.6],[12.55,49.65],[12.5,49.65],[12.55,49.65],[12.5,49.65],[12.55,49.65],[12.5,49.65],[12.55,49.65],[12.5,49.7],[12.45,49.7],[12.45,49.75],[12.4,49.75],[12.45,49.8],[12.5,49.85],[12.45,49.85],[12.5,49.85],[12.5,49.9],[12.55,49.9],[12.55,49.95],[12.5,49.95],[12.45,49.95],[12.5,49.95],[12.5,50],[12.45,50],[12.4,50],[12.35,50],[12.35,50.05],[12.3,50.05],[12.25,50.05],[12.3,50.1],[12.25,50.1],[12.2,50.1],[12.2,50.15],[12.2,50.2],[12.15,50.2],[12.15,50.25],[12.1,50.25],[12.15,50.25],[12.15,50.3],[12.1,50.3],[12.15,50.3],[12.1,50.3],[12.1,50.35],[12.1,50.3],[12.1,50.35],[12.05,50.35],[12,50.35],[12,50.4],[11.95,50.4],[11.9,50.4],[11.85,50.4],[11.8,50.4],[11.85,50.4],[11.8,50.4],[11.75,50.4],[11.7,50.4],[11.65,50.4],[11.6,50.4],[11.55,50.4],[11.5,50.35],[11.5,50.4],[11.5,50.45],[11.45,50.45],[11.4,50.45],[11.4,50.5],[11.45,50.5],[11.4,50.5],[11.45,50.5],[11.4,50.5],[11.35,50.5],[11.3,50.5],[11.25,50.5],[11.25,50.45],[11.25,50.4],[11.3,50.4],[11.3,50.35],[11.25,50.35],[11.3,50.35],[11.25,50.35],[11.25,50.3],[11.25,50.25],[11.25,50.3],[11.2,50.3],[11.2,50.25],[11.15,50.25],[11.2,50.3],[11.15,50.3],[11.15,50.35],[11.1,50.35],[11.05,50.35],[11,50.35],[10.95,50.35],[10.95,50.4],[10.9,50.4],[10.85,50.4],[10.8,50.4],[10.8,50.35],[10.75,50.35],[10.7,50.35],[10.75,50.35],[10.7,50.35],[10.7,50.3],[10.75,50.3],[10.8,50.3],[10.85,50.3],[10.85,50.25],[10.85,50.3],[10.85,50.25],[10.8,50.25],[10.75,50.25],[10.75,50.2],[10.7,50.2],[10.7,50.25],[10.7,50.2],[10.65,50.2],[10.65,50.25],[10.65,50.2],[10.6,50.2],[10.6,50.25],[10.6,50.3],[10.6,50.35],[10.55,50.35],[10.5,50.35],[10.5,50.4],[10.5,50.35],[10.45,50.35],[10.45,50.4],[10.4,50.4],[10.4,50.45],[10.35,50.45],[10.4,50.45],[10.35,50.45],[10.35,50.5],[10.3,50.5],[10.25,50.5],[10.25,50.55],[10.2,50.55],[10.15,50.55],[10.1,50.55],[10.15,50.55],[10.1,50.55],[10.05,50.55],[10.05,50.5],[10,50.5],[10,50.45],[9.95,50.45],[9.95,50.4],[9.9,50.4],[9.85,50.4],[9.8,50.4],[9.8,50.45],[9.8,50.4],[9.75,50.45],[9.75,50.4],[9.75,50.35],[9.75,50.3],[9.7,50.3],[9.65,50.25],[9.6,50.25],[9.6,50.2],[9.6,50.25],[9.55,50.25],[9.55,50.2],[9.55,50.25],[9.5,50.25],[9.5,50.2],[9.5,50.15],[9.55,50.15],[9.5,50.15],[9.5,50.1],[9.45,50.1],[9.4,50.1],[9.4,50.15],[9.35,50.15],[9.3,50.15],[9.25,50.15],[9.2,50.15],[9.2,50.1],[9.15,50.1],[9.1,50.15],[9.1,50.1],[9.05,50.1],[9,50.1],[9,50.05],[9.05,50.05],[9.05,50],[9,50],[9,49.95],[9.05,49.95],[9,49.95],[9.05,49.95],[9.05,49.9],[9,49.9],[9.05,49.9],[9.05,49.85],[9.1,49.85],[9.1,49.8],[9.15,49.8],[9.1,49.8],[9.1,49.75],[9.15,49.75],[9.15,49.7],[9.1,49.7],[9.15,49.7],[9.1,49.7],[9.1,49.65],[9.05,49.6],[9.1,49.6]]]},"properties":{"SN_L":"09"}},
{"type":"Feature","geometry":{"type":"Polygon","coordinates":[[[6.4,49.55],[6.35,49.55],[6.35,49.5],[6.35,49.45],[6.4,49.45],[6.4,49.5],[6.45,49.5],[6.45,49.45],[6.5,49.45],[6.55,49.45],[6.55,49.4],[6.6,49.4],[6.6,49.35],[6.55,49.35],[6.6,49.35],[6.6,49.3],[6.65,49.3],[6.65,49.25],[6.7,49.25],[6.7,49.2],[6.75,49.2],[6.7,49.2],[6.75,49.15],[6.8,49.15],[6.85,49.15],[6.85,49.2],[6.85,49.15],[6.85,49.2],[6.9,49.2],[6.95,49.2],[7,49.2],[7.05,49.2],[7.05,49.15],[7.05,49.1],[7.1,49.15],[7.15,49.15],[7.15,49.1],[7.15,49.15],[7.2,49.15],[7.2,49.1],[7.2,49.15],[7.25,49.15],[7.25,49.1],[7.3,49.1],[7.3,49.15],[7.35,49.15],[7.35,49.2],[7.3,49.2],[7.3,49.25],[7.35,49.25],[7.3,49.25],[7.35,49.25],[7.35,49.3],[7.4,49.3],[7.4,49.35],[7.35,49.35],[7.35,49.4],[7.35,49.35],[7.35,49.4],[7.3,49.4],[7.25,49.4],[7.25,49.45],[7.3,49.45],[7.3,49.5],[7.3,49.55],[7.25,49.55],[7.25,49.6],[7.25,49.55],[7.2,49.55],[7.2,49.6],[7.15,49.6],[7.2,49.6],[7.15,49.6],[7.1,49.6],[7.05,49.6],[7.05,49.65],[7,49.65],[7,49.6],[7,49.65],[6.95,49.65],[6.95,49.6],[6.9,49.6],[6.85,49.6],[6.8,49.6],[6.8,49.55],[6.75,49.55],[6.7,49.55],[6.65,49.55],[6.6,49.55],[6.6,49.5],[6.6,49.55],[6.55,49.55],[6.5,49.55],[6.45,49.55],[6.4,49.55]]]},"properties":{"SN_L":"10"}},
{"type":"Feature","geometry":{"type":"Polygon","coordinates":[[[13.5,52.65],[13.45,52.65],[13.4,52.65],[13.35,52.65],[13.4,52.65],[13.35,52.6],[13.35,52.65],[13.3,52.65],[13.25,52.65],[13.2,52.65],[13.2,52.6],[13.15,52.6],[13.15,52.55],[13.1,52.55],[13.1,52.5],[13.15,52.5],[13.1,52.5],[13.1,52.45],[13.1,52.4],[13.15,52.4],[13.2,52.4],[13.25,52.4],[13.3,52.4],[13.35,52.4],[13.4,52.4],[13.45,52.4],[13.4,52.4],[13.45,52.4],[13.5,52.4],[13.55,52.4],[13.6,52.4],[13.65,52.4],[13.65,52.35],[13.7,52.35],[13.7,52.4],[13.75,52.4],[13.75,52.45],[13.7,52.45],[13.65,52.45],[13.65,52.5],[13.65,52.45],[13.6,52.45],[13.6,52.5],[13.65,52.5],[13.6,52.5],[13.65,52.5],[13.65,52.55],[13.6,52.55],[13.55,52.55],[13.55,52.6],[13.5,52.6],[13.5,52.65]]]},"properties":{"SN_L":"11"}},
{"type":"Feature","geometry":{"type":"Polygon","coordinates":[[[11.6,53.05],[11.65,53.05],[11.65,53],[11.7,53],[11.75,53],[11.75,52.95],[11.8,52.95],[11.85,52.95],[11.8,52.95],[11.8,52.9],[11.85,52.9],[11.9,52.9],[11.95,52.9],[12,52.9],[12.05,52.9],[12.1,52.9],[12.15,52.9],[12.1,52.9],[12.15,52.85],[12.1,52.85],[12.15,52.85],[12.2,52.85],[12.2,52.9],[12.2,52.85],[12.25,52.85],[12.25,52.8],[12.2,52.8],[12.2,52.75],[12.2,52.7],[12.25,52.7],[12.25,52.65],[12.2,52.6],[12.15,52.65],[12.15,52.6],[12.2,52.6],[12.15,52.6],[12.2,52.6],[12.2,52.55],[12.15,52.55],[12.2,52.55],[12.2,52.5],[12.15,52.5],[12.2,52.5],[12.25,52.5],[12.2,52.5],[12.25,52.5],[12.3,52.5],[12.35,52.5],[12.3,52.5],[12.35,52.5],[12.35,52.45],[12.3,52.45],[12.3,52.4],[12.25,52.4],[12.3,52.4],[12.3,52.35],[12.3,52.3],[12.25,52.3],[12.25,52.25],[12.3,52.25],[12.25,52.25],[12.3,52.25],[12.3,52.2],[12.25,52.2],[12.2,52.15],[12.25,52.15],[12.25,52.1],[12.3,52.1],[12.35,52.05],[12.4,52.05],[12.4,52],[12.45,52],[12.45,52.05],[12.5,52.05],[12.5,52],[12.55,52],[12.6,52],[12.65,52],[12.7,52],[12.75,52],[12.8,52],[12.8,51.95],[12.85,51.95],[12.9,51.95],[12.95,51.95],[12.95,51.9],[13,51.9],[12.95,51.9],[13,51.9],[13.05,51.9],[13.05,51.85],[13.1,51.85],[13.1,51.9],[13.1,51.85],[13.1,51.9],[13.15,51.9],[13.15,51.85],[13.1,51.85],[13.15,51.85],[13.15,51.8],[13.15,51.75],[13.2,51.75],[13.2,51.7],[13.15,51.7],[13.1,51.65],[13.05,51.65],[13.1,51.6],[13.15,51.6],[13.15,51.55],[13.2,51.55],[13.2,51.5],[13.2,51.45],[13.2,51.4],[13.25,51.4],[13.3,51.4],[13.35,51.45],[13.3,51.45],[13.35,51.45],[13.4,51.4],[13.4,51.45],[13.45,51.45],[13.4,51.45],[13.4,51.4],[13.45,51.4],[13.45,51.45],[13.45,51.4],[13.45,51.45],[13.45,51.4],[13.5,51.4],[13.55,51.4],[13.55,51.35],[13.55,51.4],[13.6,51.4],[13.6,51.35],[13.65,51.35],[13.65,51.4],[13.7,51.35],[13.75,51.35],[13.8,51.35],[13.85,51.35],[13.85,51.4],[13.9,51.4],[13.95,51.4],[14,51.35],[14,51.4],[14.05,51.4],[14,51.4],[14.05,51.4],[14.05,51.45],[14.05,51.5],[14.05,51.45],[14.1,51.45],[14.1,51.5],[14.05,51.5],[14.1,51.5],[14.15,51.5],[14.15,51.55],[14.2,51.55],[14.25,51.55],[14.3,51.55],[14.3,51.5],[14.35,51.5],[14.35,51.55],[14.4,51.55],[14.45,51.55],[14.5,51.55],[14.55,51.55],[14.55,51.6],[14.6,51.6],[14.6,51.55],[14.65,51.55],[14.7,51.55],[14.7,51.6],[14.75,51.6],[14.75,51.65],[14.75,51.7],[14.7,51.7],[14.65,51.75],[14.65,51.8],[14.6,51.8],[14.6,51.85],[14.65,51.85],[14.65,51.9],[14.7,51.9],[14.65,51.9],[14.7,51.9],[14.7,51.95],[14.7,52],[14.75,52],[14.75,52.05],[14.75,52.1],[14.7,52.1],[14.7,52.15],[14.7,52.2],[14.7,52.25],[14.65,52.25],[14.6,52.25],[14.6,52.3],[14.55,52.3],[14.6,52.3],[14.55,52.3],[14.55,52.35],[14.55,52.4],[14.55,52.45],[14.6,52.45],[14.6,52.5],[14.65,52.5],[14.6,52.5],[14.6,52.55],[14.65,52.55],[14.65,52.6],[14.6,52.6],[14.55,52.6],[14.55,52.65],[14.5,52.65],[14.45,52.65],[14.45,52.7],[14.4,52.7],[14.4,52.75],[14.35,52.75],[14.3,52.75],[14.25,52.8],[14.2,52.8],[14.15,52.8],[14.15,52.85],[14.1,52.85],[14.15,52.85],[14.15,52.9],[14.15,52.95],[14.2,53],[14.25,53],[14.3,53],[14.3,53.05],[14.35,53.05],[14.35,53.1],[14.4,53.1],[14.4,53.15],[14.35,53.15],[14.35,53.2],[14.4,53.2],[14.4,53.25],[14.45,53.25],[14.45,53.3],[14.4,53.3],[14.4,53.35],[14.4,53.3],[14.35,53.3],[14.3,53.3],[14.25,53.3],[14.25,53.25],[14.2,53.25],[14.15,53.25],[14.1,53.25],[14.1,53.3],[14.15,53.3],[14.2,53.35],[14.25,53.35],[14.25,53.4],[14.25,53.45],[14.2,53.45],[14.2,53.4],[14.15,53.4],[14.15,53.45],[14.1,53.45],[14.1,53.4],[14.05,53.4],[14.05,53.45],[14,53.45],[13.95,53.45],[13.9,53.45],[13.9,53.4],[13.9,53.45],[13.9,53.5],[13.85,53.5],[13.9,53.5],[13.85,53.5],[13.8,53.5],[13.8,53.55],[13.8,53.5],[13.85,53.5],[13.8,53.5],[13.8,53.45],[13.8,53.5],[13.75,53.5],[13.7,53.5],[13.7,53.45],[13.65,53.45],[13.65,53.4],[13.6,53.4],[13.55,53.4],[13.55,53.35],[13.5,53.35],[13.55,53.35],[13.5,53.35],[13.5,53.3],[13.5,53.35],[13.5,53.3],[13.45,53.3],[13.4,53.25],[13.35,53.25],[13.35,53.3],[13.35,53.25],[13.3,53.3],[13.3,53.25],[13.25,53.25],[13.25,53.2],[13.2,53.2],[13.2,53.25],[13.15,53.25],[13.1,53.25],[13.1,53.2],[13.05,53.2],[13,53.2],[13,53.15],[12.95,53.15],[12.95,53.2],[12.95,53.15],[12.95,53.2],[13,53.2],[12.95,53.2],[12.9,53.2],[12.95,53.2],[12.9,53.2],[12.85,53.2],[12.8,53.2],[12.75,53.2],[12.75,53.25],[12.75,53.2],[12.7,53.2],[12.7,53.25],[12.65,53.25],[12.6,53.25],[12.55,53.25],[12.5,53.25],[12.45,53.25],[12.45,53.3],[12.4,53.3],[12.35,53.3],[12.3,53.3],[12.3,53.35],[12.25,53.3],[12.25,53.35],[12.2,53.35],[12.15,53.35],[12.1,53.35],[12.05,53.35],[12,53.35],[12,53.3],[11.95,53.3],[11.95,53.25],[11.9,53.25],[11.9,53.3],[11.9,53.25],[11.85,53.25],[11.8,53.25],[11.85,53.25],[11.8,53.25],[11.75,53.25],[11.75,53.2],[11.75,53.25],[11.7,53.25],[11.65,53.25],[11.6,53.25],[11.6,53.2],[11.55,53.2],[11.55,53.15],[11.5,53.15],[11.5,53.1],[11.5,53.15],[11.45,53.15],[11.4,53.15],[11.4,53.1],[11.35,53.1],[11.3,53.1],[11.25,53.1],[11.3,53.1],[11.3,53.05],[11.35,53.05],[11.4,53.05],[11.45,53.05],[11.45,53.1],[11.45,53.05],[11.5,53.05],[11.55,53.05],[11.6,53.05]],[[13.5,52.65],[13.5,52.6],[13.55,52.6],[13.55,52.55],[13.6,52.55],[13.65,52.55],[13.65,52.5],[13.6,52.5],[13.65,52.5],[13.6,52.5],[13.6,52.45],[13.65,52.45],[13.65,52.5],[13.65,52.45],[13.7,52.45],[13.75,52.45],[13.75,52.4],[13.7,52.4],[13.7,52.35],[13.65,52.35],[13.65,52.4],[13.6,52.4],[13.55,52.4],[13.5,52.4],[13.45,52.4],[13.4,52.4],[13.45,52.4],[13.4,52.4],[13.35,52.4],[13.3,52.4],[13.25,52.4],[13.2,52.4],[13.15,52.4],[13.1,52.4],[13.1,52.45],[13.1,52.5],[13.15,52.5],[13.1,52.5],[13.1,52.55],[13.15,52.55],[13.15,52.6],[13.2,52.6],[13.2,52.65],[13.25,52.65],[13.3,52.65],[13.35,52.65],[13.35,52.6],[13.4,52.65],[13.35,52.65],[13.4,52.65],[13.45,52.65],[13.5,52.65]]]},"properties":{"SN_L":"12"}},
{"type":"Feature","geometry":{"type":"Polygon","coordinates":[[[14.25,53.95],[14.25,54],[14.2,54.15],[14.15,54.25],[14.05,54.3],[14.1,54.45],[14.05,54.5],[14,54.6],[14,54.65],[13.95,54.65],[13.95,54.7],[13.9,54.7],[13.9,54.75],[13.85,54.75],[13.75,54.8],[13.65,54.85],[13.6,54.85],[13.55,54.85],[13.55,54.9],[13.5,54.9],[13.45,54.9],[13.4,54.9],[13.35,54.9],[13.3,54.9],[13.25,54.85],[13.2,54.85],[13.15,54.85],[13.1,54.85],[13.05,54.8],[13,54.8],[12.95,54.8],[12.75,54.75],[12.3,54.6],[12.3,54.5],[12.25,54.45],[12.15,54.4],[12,54.35],[11.95,54.35],[11.9,54.35],[11.75,54.35],[11.65,54.35],[11.65,54.3],[11.6,54.3],[11.4,54.2],[11.15,54.1],[11.1,54.1],[10.95,54],[10.9,53.95],[10.9,53.9],[10.95,53.9],[10.9,53.9],[10.85,53.9],[10.8,53.9],[10.8,53.85],[10.8,53.9],[10.75,53.85],[10.75,53.8],[10.75,53.75],[10.8,53.75],[10.8,53.7],[10.85,53.7],[10.9,53.7],[10.95,53.7],[10.95,53.65],[10.9,53.6],[10.9,53.55],[10.85,53.55],[10.85,53.6],[10.8,53.55],[10.85,53.55],[10.8,53.55],[10.85,53.55],[10.8,53.55],[10.8,53.5],[10.75,53.5],[10.7,53.5],[10.7,53.45],[10.65,53.45],[10.6,53.45],[10.6,53.4],[10.6,53.35],[10.65,53.35],[10.7,53.35],[10.75,53.35],[10.8,53.3],[10.85,53.3],[10.85,53.35],[10.85,53.3],[10.9,53.3],[10.9,53.35],[10.95,53.35],[11,53.35],[11,53.3],[11,53.35],[11,53.3],[11.05,53.3],[11.05,53.25],[11.1,53.2],[11.15,53.2],[11.2,53.2],[11.2,53.15],[11.15,53.15],[11.2,53.15],[11.25,53.15],[11.25,53.1],[11.3,53.1],[11.35,53.1],[11.4,53.1],[11.4,53.15],[11.45,53.15],[11.5,53.15],[11.5,53.1],[11.5,53.15],[11.55,53.15],[11.55,53.2],[11.6,53.2],[11.6,53.25],[11.65,53.25],[11.7,53.25],[11.75,53.25],[11.75,53.2],[11.75,53.25],[11.8,53.25],[11.85,53.25],[11.8,53.25],[11.85,53.25],[11.9,53.25],[11.9,53.3],[11.9,53.25],[11.95,53.25],[11.95,53.3],[12,53.3],[12,53.35],[12.05,53.35],[12.1,53.35],[12.15,53.35],[12.2,53.35],[12.25,53.35],[12.25,53.3],[12.3,53.35],[12.3,53.3],[12.35,53.3],[12.4,53.3],[12.45,53.3],[12.45,53.25],[12.5,53.25],[12.55,53.25],[12.6,53.25],[12.65,53.25],[12.7,53.25],[12.7,53.2],[12.75,53.2],[12.75,53.25],[12.75,53.2],[12.8,53.2],[12.85,53.2],[12.9,53.2],[12.95,53.2],[12.9,53.2],[12.95,53.2],[13,53.2],[12.95,53.2],[12.95,53.15],[12.95,53.2],[12.95,53.15],[13,53.15],[13,53.2],[13.05,53.2],[13.1,53.2],[13.1,53.25],[13.15,53.25],[13.2,53.25],[13.2,53.2],[13.25,53.2],[13.25,53.25],[13.3,53.25],[13.3,53.3],[13.35,53.25],[13.35,53.3],[13.35,53.25],[13.4,53.25],[13.45,53.3],[13.5,53.3],[13.5,53.35],[13.5,53.3],[13.5,53.35],[13.55,53.35],[13.5,53.35],[13.55,53.35],[13.55,53.4],[13.6,53.4],[13.65,53.4],[13.65,53.45],[13.7,53.45],[13.7,53.5],[13.75,53.5],[13.8,53.5],[13.8,53.45],[13.8,53.5],[13.85,53.5],[13.8,53.5],[13.8,53.55],[13.8,53.5],[13.85,53.5],[13.9,53.5],[13.85,53.5],[13.9,53.5],[13.9,53.45],[13.9,53.4],[13.9,53.45],[13.95,53.45],[14,53.45],[14.05,53.45],[14.05,53.4],[14.1,53.4],[14.1,53.45],[14.15,53.45],[14.15,53.4],[14.2,53.4],[14.2,53.45],[14.25,53.45],[14.25,53.4],[14.25,53.35],[14.2,53.35],[14.15,53.3],[14.1,53.3],[14.1,53.25],[14.15,53.25],[14.2,53.25],[14.25,53.25],[14.25,53.3],[14.3,53.3],[14.35,53.3],[14.4,53.3],[14.4,53.35],[14.4,53.4],[14.35,53.4],[14.35,53.45],[14.35,53.5],[14.3,53.5],[14.3,53.55],[14.3,53.6],[14.3,53.65],[14.25,53.65],[14.3,53.65],[14.3,53.7],[14.25,53.7],[14.25,53.75],[14.3,53.75],[14.25,53.8],[14.2,53.85],[14.2,53.9],[14.25,53.95]]]},"properties":{"SN_L":"13"}},
{"type":"Feature","geometry":{"type":"Polygon","coordinates":[[[12.1,50.3],[12.15,50.3],[12.2,50.3],[12.2,50.25],[12.25,50.25],[12.3,50.25],[12.3,50.2],[12.25,50.2],[12.3,50.2],[12.3,50.15],[12.3,50.2],[12.3,50.15],[12.35,50.15],[12.35,50.2],[12.3,50.2],[12.35,50.2],[12.35,50.25],[12.35,50.3],[12.4,50.3],[12.45,50.3],[12.45,50.35],[12.5,50.35],[12.5,50.4],[12.55,50.4],[12.6,50.4],[12.65,50.4],[12.7,50.4],[12.75,50.4],[12.75,50.45],[12.8,50.45],[12.85,50.45],[12.9,50.45],[12.9,50.4],[12.95,50.4],[13,50.4],[13,50.45],[13,50.5],[13.05,50.5],[13.1,50.5],[13.15,50.5],[13.2,50.5],[13.2,50.55],[13.25,50.55],[13.2,50.55],[13.25,50.55],[13.25,50.6],[13.3,50.6],[13.35,50.6],[13.3,50.6],[13.35,50.6],[13.4,50.65],[13.35,50.65],[13.4,50.65],[13.35,50.65],[13.4,50.65],[13.4,50.6],[13.45,50.6],[13.5,50.6],[13.5,50.65],[13.55,50.65],[13.5,50.65],[13.55,50.65],[13.55,50.7],[13.6,50.7],[13.65,50.7],[13.6,50.7],[13.65,50.75],[13.7,50.7],[13.7,50.75],[13.75,50.75],[13.8,50.75],[13.85,50.7],[13.85,50.75],[13.9,50.75],[13.9,50.8],[13.95,50.8],[14,50.8],[14.05,50.8],[14.1,50.8],[14.1,50.85],[14.15,50.85],[14.2,50.85],[14.25,50.85],[14.25,50.9],[14.3,50.9],[14.35,50.9],[14.4,50.9],[14.4,50.95],[14.35,50.95],[14.3,50.95],[14.35,50.95],[14.35,51],[14.3,51],[14.25,51],[14.3,51],[14.3,51.05],[14.25,51.05],[14.3,51.05],[14.35,51.05],[14.4,51.05],[14.4,51],[14.45,51.05],[14.5,51.05],[14.45,51.05],[14.5,51],[14.5,51.05],[14.5,51],[14.55,51],[14.6,51],[14.6,50.95],[14.55,50.95],[14.55,50.9],[14.6,50.9],[14.6,50.95],[14.65,50.95],[14.65,50.9],[14.65,50.85],[14.6,50.85],[14.65,50.85],[14.7,50.85],[14.7,50.8],[14.75,50.8],[14.75,50.85],[14.75,50.8],[14.8,50.8],[14.8,50.85],[14.85,50.85],[14.8,50.85],[14.8,50.9],[14.85,50.9],[14.85,50.95],[14.9,50.95],[14.9,51],[14.95,51],[14.95,51.05],[15,51.1],[15,51.15],[15,51.2],[15,51.25],[15.05,51.25],[15,51.25],[15.05,51.25],[15,51.25],[15.05,51.25],[15.05,51.3],[15,51.3],[15,51.35],[14.95,51.35],[15,51.35],[15,51.4],[14.95,51.4],[14.95,51.45],[14.95,51.5],[14.9,51.5],[14.85,51.5],[14.8,51.5],[14.75,51.5],[14.75,51.55],[14.7,51.55],[14.75,51.6],[14.7,51.6],[14.7,51.55],[14.65,51.55],[14.6,51.55],[14.6,51.6],[14.55,51.6],[14.55,51.55],[14.5,51.55],[14.45,51.55],[14.4,51.55],[14.35,51.55],[14.35,51.5],[14.3,51.5],[14.3,51.55],[14.25,51.55],[14.2,51.55],[14.15,51.55],[14.15,51.5],[14.1,51.5],[14.05,51.5],[14.1,51.5],[14.1,51.45],[14.05,51.45],[14.05,51.5],[14.05,51.45],[14.05,51.4],[14,51.4],[14.05,51.4],[14,51.4],[14,51.35],[13.95,51.4],[13.9,51.4],[13.85,51.4],[13.85,51.35],[13.8,51.35],[13.75,51.35],[13.7,51.35],[13.65,51.4],[13.65,51.35],[13.6,51.35],[13.6,51.4],[13.55,51.4],[13.55,51.35],[13.55,51.4],[13.5,51.4],[13.45,51.4],[13.45,51.45],[13.45,51.4],[13.45,51.45],[13.45,51.4],[13.4,51.4],[13.4,51.45],[13.45,51.45],[13.4,51.45],[13.4,51.4],[13.35,51.45],[13.3,51.45],[13.35,51.45],[13.3,51.4],[13.25,51.4],[13.2,51.4],[13.2,51.45],[13.2,51.5],[13.2,51.55],[13.15,51.55],[13.15,51.6],[13.1,51.6],[13.05,51.65],[13,51.65],[12.95,51.65],[12.9,51.65],[12.85,51.65],[12.85,51.7],[12.8,51.65],[12.75,51.65],[12.7,51.65],[12.65,51.65],[12.65,51.6],[12.6,51.6],[12.65,51.65],[12.6,51.65],[12.6,51.6],[12.6,51.65],[12.6,51.6],[12.55,51.6],[12.5,51.6],[12.45,51.6],[12.4,51.6],[12.45,51.6],[12.4,51.6],[12.35,51.6],[12.3,51.6],[12.3,51.55],[12.25,51.55],[12.2,51.55],[12.2,51.5],[12.2,51.45],[12.15,51.45],[12.2,51.45],[12.2,51.4],[12.15,51.4],[12.2,51.4],[12.15,51.4],[12.2,51.4],[12.15,51.4],[12.2,51.4],[12.2,51.35],[12.15,51.35],[12.15,51.3],[12.15,51.25],[12.2,51.25],[12.2,51.2],[12.15,51.2],[12.2,51.2],[12.2,51.15],[12.25,51.15],[12.25,51.1],[12.2,51.1],[12.25,51.1],[12.3,51.1],[12.35,51.1],[12.4,51.1],[12.4,51.05],[12.4,51.1],[12.45,51.1],[12.45,51.05],[12.5,51.05],[12.5,51],[12.5,51.05],[12.5,51],[12.55,51.05],[12.55,51],[12.6,51],[12.6,50.95],[12.65,50.95],[12.65,50.9],[12.6,50.9],[12.55,50.9],[12.5,50.9],[12.45,50.9],[12.45,50.85],[12.4,50.85],[12.35,50.85],[12.35,50.8],[12.3,50.8],[12.3,50.85],[12.3,50.8],[12.25,50.8],[12.3,50.8],[12.3,50.75],[12.25,50.75],[12.25,50.7],[12.3,50.7],[12.3,50.65],[12.25,50.65],[12.2,50.65],[12.2,50.6],[12.15,50.6],[12.2,50.6],[12.15,50.65],[12.15,50.6],[12.1,50.6],[12.15,50.6],[12.15,50.55],[12.1,50.55],[12.1,50.6],[12.1,50.55],[12.05,50.55],[12.1,50.55],[12.05,50.55],[12,50.55],[12.05,50.6],[12,50.6],[12,50.65],[12,50.6],[11.95,50.6],[11.9,50.6],[11.95,50.6],[11.95,50.55],[11.9,50.55],[11.95,50.55],[11.9,50.55],[11.85,50.55],[11.9,50.55],[11.9,50.5],[11.95,50.55],[11.95,50.5],[11.95,50.45],[11.9,50.45],[11.95,50.45],[11.9,50.45],[11.9,50.4],[11.95,50.4],[12,50.4],[12,50.35],[12.05,50.35],[12.1,50.35],[12.1,50.3],[12.1,50.35],[12.1,50.3]]]},"properties":{"SN_L":"14"}},
{"type":"Feature","geometry":{"type":"Polygon","coordinates":[[[10.7,51.65],[10.75,51.65],[10.8,51.65],[10.8,51.6],[10.85,51.65],[10.9,51.6],[10.95,51.6],[10.9,51.6],[10.9,51.55],[10.95,51.55],[10.95,51.5],[10.95,51.45],[11,51.45],[11,51.4],[11.05,51.4],[11.05,51.45],[11.1,51.4],[11.15,51.4],[11.2,51.4],[11.25,51.4],[11.3,51.4],[11.35,51.4],[11.4,51.4],[11.4,51.35],[11.45,51.35],[11.4,51.35],[11.45,51.35],[11.45,51.3],[11.45,51.25],[11.4,51.25],[11.35,51.25],[11.35,51.2],[11.4,51.2],[11.45,51.2],[11.45,51.15],[11.5,51.15],[11.45,51.15],[11.5,51.15],[11.45,51.15],[11.45,51.1],[11.5,51.1],[11.55,51.1],[11.6,51.1],[11.65,51.1],[11.7,51.1],[11.7,51.05],[11.75,51.05],[11.8,51.05],[11.85,51.05],[11.9,51.05],[11.95,51.05],[11.95,51],[12,51],[11.95,51],[12,51],[11.95,51],[12,51],[12,50.95],[12.05,50.95],[12.1,50.95],[12.1,51],[12.1,50.95],[12.15,50.95],[12.2,51],[12.2,50.95],[12.25,50.95],[12.25,51],[12.3,51],[12.3,51.05],[12.25,51.05],[12.25,51.1],[12.3,51.1],[12.25,51.1],[12.2,51.1],[12.25,51.1],[12.25,51.15],[12.2,51.15],[12.2,51.2],[12.15,51.2],[12.2,51.2],[12.2,51.25],[12.15,51.25],[12.15,51.3],[12.15,51.35],[12.2,51.35],[12.2,51.4],[12.15,51.4],[12.2,51.4],[12.15,51.4],[12.2,51.4],[12.15,51.4],[12.2,51.4],[12.2,51.45],[12.15,51.45],[12.2,51.45],[12.2,51.5],[12.2,51.55],[12.25,51.55],[12.3,51.55],[12.3,51.6],[12.35,51.6],[12.4,51.6],[12.45,51.6],[12.4,51.6],[12.45,51.6],[12.5,51.6],[12.55,51.6],[12.6,51.6],[12.6,51.65],[12.6,51.6],[12.6,51.65],[12.65,51.65],[12.6,51.6],[12.65,51.6],[12.65,51.65],[12.7,51.65],[12.75,51.65],[12.8,51.65],[12.85,51.7],[12.85,51.65],[12.9,51.65],[12.95,51.65],[13,51.65],[13.05,51.65],[13.1,51.65],[13.15,51.7],[13.2,51.7],[13.2,51.75],[13.15,51.75],[13.15,51.8],[13.15,51.85],[13.1,51.85],[13.15,51.85],[13.15,51.9],[13.1,51.9],[13.1,51.85],[13.1,51.9],[13.1,51.85],[13.05,51.85],[13.05,51.9],[13,51.9],[12.95,51.9],[13,51.9],[12.95,51.9],[12.95,51.95],[12.9,51.95],[12.85,51.95],[12.8,51.95],[12.8,52],[12.75,52],[12.7,52],[12.65,52],[12.6,52],[12.55,52],[12.5,52],[12.5,52.05],[12.45,52.05],[12.45,52],[12.4,52],[12.4,52.05],[12.35,52.05],[12.3,52.1],[12.25,52.1],[12.25,52.15],[12.2,52.15],[12.25,52.2],[12.3,52.2],[12.3,52.25],[12.25,52.25],[12.3,52.25],[12.25,52.25],[12.25,52.3],[12.3,52.3],[12.3,52.35],[12.3,52.4],[12.25,52.4],[12.3,52.4],[12.3,52.45],[12.35,52.45],[12.35,52.5],[12.3,52.5],[12.35,52.5],[12.3,52.5],[12.25,52.5],[12.2,52.5],[12.25,52.5],[12.2,52.5],[12.15,52.5],[12.2,52.5],[12.2,52.55],[12.15,52.55],[12.2,52.55],[12.2,52.6],[12.15,52.6],[12.2,52.6],[12.15,52.6],[12.15,52.65],[12.2,52.6],[12.25,52.65],[12.25,52.7],[12.2,52.7],[12.2,52.75],[12.2,52.8],[12.25,52.8],[12.25,52.85],[12.2,52.85],[12.2,52.9],[12.2,52.85],[12.15,52.85],[12.1,52.85],[12.15,52.85],[12.1,52.9],[12.15,52.9],[12.1,52.9],[12.05,52.9],[12,52.9],[11.95,52.9],[11.9,52.9],[11.85,52.9],[11.8,52.9],[11.8,52.95],[11.85,52.95],[11.8,52.95],[11.75,52.95],[11.75,53],[11.7,53],[11.65,53],[11.65,53.05],[11.6,53.05],[11.6,53],[11.55,53],[11.5,53],[11.5,52.95],[11.45,52.95],[11.45,52.9],[11.4,52.9],[11.35,52.9],[11.3,52.9],[11.3,52.85],[11.3,52.9],[11.25,52.9],[11.2,52.9],[11.15,52.9],[11.1,52.9],[11.05,52.9],[11,52.9],[10.95,52.9],[10.95,52.85],[10.9,52.85],[10.85,52.85],[10.8,52.85],[10.75,52.85],[10.75,52.8],[10.75,52.75],[10.8,52.75],[10.8,52.7],[10.85,52.7],[10.85,52.65],[10.9,52.65],[10.9,52.6],[10.95,52.6],[10.9,52.6],[10.95,52.6],[10.95,52.65],[11,52.6],[10.95,52.6],[11,52.6],[10.95,52.6],[10.95,52.55],[11,52.5],[10.95,52.5],[10.95,52.45],[11,52.4],[11.05,52.4],[11.05,52.35],[11,52.35],[11,52.3],[11.05,52.3],[11,52.3],[11.05,52.3],[11.05,52.25],[11.1,52.25],[11.1,52.2],[11.05,52.2],[11,52.2],[11.05,52.15],[11,52.15],[11,52.1],[10.95,52.1],[10.95,52.05],[10.9,52.05],[10.85,52.05],[10.8,52.05],[10.75,52.05],[10.7,52.05],[10.65,52.05],[10.65,52],[10.6,52],[10.55,52],[10.6,52],[10.6,51.95],[10.65,51.95],[10.6,51.95],[10.6,51.9],[10.65,51.9],[10.65,51.85],[10.6,51.85],[10.6,51.8],[10.55,51.8],[10.6,51.8],[10.6,51.75],[10.65,51.75],[10.65,51.7],[10.65,51.65],[10.7,51.65]]]},"properties":{"SN_L":"15"}},
{"type":"Feature","geometry":{"type":"Polygon","coordinates":[[[9.95,51.4],[9.95,51.35],[9.9,51.35],[9.95,51.35],[9.95,51.3],[10,51.3],[9.95,51.3],[10,51.3],[10.05,51.3],[10.05,51.25],[10.1,51.25],[10.05,51.25],[10.05,51.2],[10.1,51.2],[10.1,51.25],[10.1,51.2],[10.15,51.2],[10.2,51.2],[10.25,51.2],[10.25,51.15],[10.2,51.15],[10.2,51.1],[10.2,51.15],[10.15,51.15],[10.1,51.15],[10.15,51.15],[10.15,51.1],[10.2,51.1],[10.15,51.1],[10.15,51.05],[10.2,51.05],[10.2,51],[10.15,51],[10.1,51],[10.05,51],[10,51],[10.05,50.95],[10,50.95],[9.95,50.95],[9.95,50.9],[9.95,50.95],[10,50.95],[10,50.9],[9.95,50.9],[10,50.9],[10.05,50.9],[10.05,50.85],[10,50.85],[10.05,50.85],[10,50.85],[9.95,50.85],[9.95,50.8],[9.95,50.75],[9.95,50.8],[9.95,50.75],[9.9,50.75],[9.95,50.75],[9.95,50.7],[9.9,50.7],[9.9,50.65],[9.95,50.65],[10,50.65],[10,50.7],[10,50.65],[10.05,50.65],[10.05,50.7],[10.05,50.65],[10.1,50.65],[10.1,50.6],[10.05,50.6],[10.05,50.65],[10.05,50.6],[10.05,50.55],[10.05,50.5],[10.05,50.55],[10.1,50.55],[10.15,50.55],[10.1,50.55],[10.15,50.55],[10.2,50.55],[10.25,50.55],[10.25,50.5],[10.3,50.5],[10.35,50.5],[10.35,50.45],[10.4,50.45],[10.35,50.45],[10.4,50.45],[10.4,50.4],[10.45,50.4],[10.45,50.35],[10.5,50.35],[10.5,50.4],[10.5,50.35],[10.55,50.35],[10.6,50.35],[10.6,50.3],[10.6,50.25],[10.6,50.2],[10.65,50.2],[10.65,50.25],[10.65,50.2],[10.7,50.2],[10.7,50.25],[10.7,50.2],[10.75,50.2],[10.75,50.25],[10.8,50.25],[10.85,50.25],[10.85,50.3],[10.85,50.25],[10.85,50.3],[10.8,50.3],[10.75,50.3],[10.7,50.3],[10.7,50.35],[10.75,50.35],[10.7,50.35],[10.75,50.35],[10.8,50.35],[10.8,50.4],[10.85,50.4],[10.9,50.4],[10.95,50.4],[10.95,50.35],[11,50.35],[11.05,50.35],[11.1,50.35],[11.15,50.35],[11.15,50.3],[11.2,50.3],[11.15,50.25],[11.2,50.25],[11.2,50.3],[11.25,50.3],[11.25,50.25],[11.25,50.3],[11.25,50.35],[11.3,50.35],[11.25,50.35],[11.3,50.35],[11.3,50.4],[11.25,50.4],[11.25,50.45],[11.25,50.5],[11.3,50.5],[11.35,50.5],[11.4,50.5],[11.45,50.5],[11.4,50.5],[11.45,50.5],[11.4,50.5],[11.4,50.45],[11.45,50.45],[11.5,50.45],[11.5,50.4],[11.5,50.35],[11.55,50.4],[11.6,50.4],[11.65,50.4],[11.7,50.4],[11.75,50.4],[11.8,50.4],[11.85,50.4],[11.8,50.4],[11.85,50.4],[11.9,50.4],[11.9,50.45],[11.95,50.45],[11.9,50.45],[11.95,50.45],[11.95,50.5],[11.95,50.55],[11.9,50.5],[11.9,50.55],[11.85,50.55],[11.9,50.55],[11.95,50.55],[11.9,50.55],[11.95,50.55],[11.95,50.6],[11.9,50.6],[11.95,50.6],[12,50.6],[12,50.65],[12,50.6],[12.05,50.6],[12,50.55],[12.05,50.55],[12.1,50.55],[12.05,50.55],[12.1,50.55],[12.1,50.6],[12.1,50.55],[12.15,50.55],[12.15,50.6],[12.1,50.6],[12.15,50.6],[12.15,50.65],[12.2,50.6],[12.15,50.6],[12.2,50.6],[12.2,50.65],[12.25,50.65],[12.3,50.65],[12.3,50.7],[12.25,50.7],[12.25,50.75],[12.3,50.75],[12.3,50.8],[12.25,50.8],[12.3,50.8],[12.3,50.85],[12.3,50.8],[12.35,50.8],[12.35,50.85],[12.4,50.85],[12.45,50.85],[12.45,50.9],[12.5,50.9],[12.55,50.9],[12.6,50.9],[12.65,50.9],[12.65,50.95],[12.6,50.95],[12.6,51],[12.55,51],[12.55,51.05],[12.5,51],[12.5,51.05],[12.5,51],[12.5,51.05],[12.45,51.05],[12.45,51.1],[12.4,51.1],[12.4,51.05],[12.4,51.1],[12.35,51.1],[12.3,51.1],[12.25,51.1],[12.25,51.05],[12.3,51.05],[12.3,51],[12.25,51],[12.25,50.95],[12.2,50.95],[12.2,51],[12.15,50.95],[12.1,50.95],[12.1,51],[12.1,50.95],[12.05,50.95],[12,50.95],[12,51],[11.95,51],[12,51],[11.95,51],[12,51],[11.95,51],[11.95,51.05],[11.9,51.05],[11.85,51.05],[11.8,51.05],[11.75,51.05],[11.7,51.05],[11.7,51.1],[11.65,51.1],[11.6,51.1],[11.55,51.1],[11.5,51.1],[11.45,51.1],[11.45,51.15],[11.5,51.15],[11.45,51.15],[11.5,51.15],[11.45,51.15],[11.45,51.2],[11.4,51.2],[11.35,51.2],[11.35,51.25],[11.4,51.25],[11.45,51.25],[11.45,51.3],[11.45,51.35],[11.4,51.35],[11.45,51.35],[11.4,51.35],[11.4,51.4],[11.35,51.4],[11.3,51.4],[11.25,51.4],[11.2,51.4],[11.15,51.4],[11.1,51.4],[11.05,51.45],[11.05,51.4],[11,51.4],[11,51.45],[10.95,51.45],[10.95,51.5],[10.95,51.55],[10.9,51.55],[10.9,51.6],[10.95,51.6],[10.9,51.6],[10.85,51.65],[10.8,51.6],[10.8,51.65],[10.75,51.65],[10.7,51.65],[10.65,51.65],[10.65,51.6],[10.65,51.55],[10.6,51.6],[10.6,51.55],[10.55,51.55],[10.5,51.55],[10.45,51.6],[10.4,51.6],[10.35,51.6],[10.4,51.6],[10.4,51.55],[10.35,51.55],[10.35,51.5],[10.3,51.5],[10.25,51.5],[10.25,51.45],[10.2,51.45],[10.2,51.5],[10.2,51.45],[10.15,51.45],[10.1,51.45],[10.1,51.4],[10.05,51.4],[10.05,51.45],[10.05,51.4],[10,51.4],[9.95,51.4]]]},"properties":{"SN_L":"16"}}
]}