{"type":"FeatureCollection", "features": [
{"type":"Feature","geometry":{"type":"MultiPolygon","coordinates":[[[[8.5644,53.5498],[8.5774,53.5784],[8.5479,53.5837],[8.5374,53.5973],[8.5233,53.5916],[8.5594,53.5524],[8.5644,53.5498]]],[[[8.6747,53.1789],[8.6575,53.1822],[8.628,53.1984],[8.5924,53.1843],[8.5813,53.1899],[8.5817,53.2003],[8.599,53.2125],[8.5785,53.2173],[8.5537,53.2078],[8.5302,53.2161],[8.5211,53.2265],[8.4853,53.2271],[8.4844,53.2226],[8.5047,53.2008],[8.5333,53.1873],[8.5735,53.176],[8.6166,53.169],[8.6236,53.1632],[8.6279,53.143],[8.6344,53.1345],[8.6577,53.1185],[8.6549,53.1089],[8.6698,53.103],[8.6649,53.0946],[8.6741,53.0867],[8.7008,53.0823],[8.7092,53.0759],[8.7069,53.0534],[8.7114,53.0446],[8.7301,53.0355],[8.7563,53.0388],[8.7727,53.0451],[8.8095,53.0309],[8.8185,53.0225],[8.8381,53.0184],[8.8498,53.0234],[8.8865,53.0217],[8.8975,53.013],[8.9158,53.011],[8.9359,53.0137],[8.9381,53.025],[8.9656,53.0364],[8.9793,53.0458],[8.9698,53.0568],[8.9614,53.0852],[8.9909,53.0967],[8.963,53.1003],[8.9594,53.1102],[8.947,53.1161],[8.9842,53.1261],[8.9566,53.1472],[8.9368,53.1512],[8.9121,53.1326],[8.8989,53.1344],[8.8644,53.1317],[8.8419,53.1482],[8.8296,53.1633],[8.7999,53.1611],[8.7814,53.1634],[8.7687,53.1609],[8.7411,53.1684],[8.7287,53.1802],[8.6975,53.1831],[8.6747,53.1789]]]]},"properties":{"AGS":"04011000","GEN":"Bremen","SN_L":"04"}},
{"type":"Feature","geometry":{"type":"Polygon","coordinates":[[[8.6506,53.6026],[8.6233,53.6053],[8.591,53.5944],[8.5337,53.6076],[8.5204,53.6062],[8.5233,53.5916],[8.5374,53.5973],[8.5479,53.5837],[8.5774,53.5784],[8.5644,53.5498],[8.5763,53.5389],[8.5675,53.519],[8.5527,53.5162],[8.5146,53.5014],[8.5016,53.491],[8.4927,53.4724],[8.5058,53.4712],[8.5314,53.4806],[8.5738,53.4886],[8.6059,53.4842],[8.6195,53.4893],[8.6379,53.5032],[8.6521,53.516],[8.6398,53.5253],[8.6441,53.5492],[8.6309,53.5557],[8.618,53.5787],[8.6427,53.5926],[8.6506,53.6026]]]},"properties":{"AGS":"04012000","GEN":"Bremerhaven","SN_L":"04"}},
{"type":"Feature","geometry":{"type":"Polygon","coordinates":[[[8.5644,53.5498],[8.5594,53.5524],[8.5233,53.5916],[8.5618,53.5489],[8.5644,53.5498]]]},"properties":{"AGS":"04011000","GEN":"Bremen","SN_L":"04"}},
{"type":"Feature","geometry":{"type":"Polygon","coordinates":[[[8.5204,53.6062],[8.4832,53.6005],[8.5088,53.5681],[8.536,53.5513],[8.5564,53.5349],[8.5549,53.5251],[8.5527,53.5162],[8.5675,53.519],[8.5763,53.5389],[8.5644,53.5498],[8.5618,53.5489],[8.5233,53.5916],[8.5204,53.6062]]]},"properties":{"AGS":"04012000","GEN":"Bremerhaven","SN_L":"04"}}
]}