{"type":"FeatureCollection", "features": [
{"type":"Feature","geometry":{"type":"Polygon","coordinates":[[[6.9936,49.3206],[6.9817,49.3217],[6.9656,49.3129],[6.952,49.2886],[6.9233,49.2833],[6.9043,49.2629],[6.9083,49.247],[6.8894,49.2443],[6.8787,49.2292],[6.8487,49.2328],[6.8274,49.2215],[6.833,49.2142],[6.8376,49.2129],[6.8589,49.2228],[6.8933,49.2091],[6.9115,49.2151],[6.9187,49.2227],[6.9399,49.2167],[6.9596,49.2031],[6.9752,49.2095],[7.0108,49.188],[7.035,49.1914],[7.0294,49.1767],[7.0466,49.1729],[7.0583,49.1769],[7.0771,49.1744],[7.0941,49.1813],[7.112,49.1762],[7.107,49.1883],[7.1345,49.2116],[7.1225,49.2228],[7.1295,49.2403],[7.1082,49.2563],[7.0923,49.2469],[7.0794,49.2498],[7.0763,49.2585],[7.0627,49.2615],[7.0626,49.2714],[7.0542,49.287],[7.0311,49.2969],[7.0159,49.2959],[7.0058,49.3128],[6.9936,49.3206]]]},"properties":{"AGS":"10041100","GEN":"Saarbrücken","SN_L":"10"}},
{"type":"Feature","geometry":{"type":"Polygon","coordinates":[[[7.1142,49.3363],[7.0865,49.3468],[7.0622,49.3304],[7.0549,49.3154],[7.0676,49.3126],[7.1069,49.3156],[7.114,49.3241],[7.1142,49.3363]]]},"properties":{"AGS":"10041511","GEN":"Friedrichsthal","SN_L":"10"}},
{"type":"Feature","geometry":{"type":"Polygon","coordinates":[[[6.833,49.2142],[6.8248,49.214],[6.7947,49.1924],[6.776,49.1845],[6.79,49.166],[6.8341,49.1511],[6.8475,49.1572],[6.8444,49.1731],[6.8618,49.1788],[6.8505,49.1934],[6.8524,49.1995],[6.8376,49.2129],[6.833,49.2142]]]},"properties":{"AGS":"10041512","GEN":"Großrosseln","SN_L":"10"}},
{"type":"Feature","geometry":{"type":"Polygon","coordinates":[[[7.0001,49.359],[6.9646,49.3567],[6.9586,49.3709],[6.9443,49.3777],[6.922,49.368],[6.9037,49.3554],[6.872,49.3455],[6.8822,49.3312],[6.8753,49.3269],[6.9014,49.3251],[6.9118,49.3305],[6.9341,49.3241],[6.947,49.3267],[6.9677,49.3204],[6.9817,49.3217],[6.9936,49.3206],[7.017,49.3369],[7.0204,49.3497],[7.0224,49.3588],[7.0001,49.359]]]},"properties":{"AGS":"10041513","GEN":"Heusweiler","SN_L":"10"}},
{"type":"Feature","geometry":{"type":"Polygon","coordinates":[[[7.112,49.1762],[7.0941,49.1813],[7.0771,49.1744],[7.0583,49.1769],[7.0466,49.1729],[7.0294,49.1767],[7.0333,49.1549],[7.0468,49.1354],[7.0442,49.1202],[7.0517,49.113],[7.0666,49.1142],[7.0718,49.1243],[7.0894,49.1302],[7.0813,49.1492],[7.1011,49.156],[7.1194,49.1699],[7.112,49.1762]]]},"properties":{"AGS":"10041514","GEN":"Kleinblittersdorf","SN_L":"10"}},
{"type":"Feature","geometry":{"type":"Polygon","coordinates":[[[6.9014,49.3251],[6.8753,49.3269],[6.873,49.3257],[6.8829,49.3165],[6.8796,49.3033],[6.865,49.2875],[6.8569,49.2858],[6.8557,49.2721],[6.8763,49.274],[6.8829,49.2657],[6.9043,49.2629],[6.9233,49.2833],[6.9282,49.293],[6.9292,49.3134],[6.9102,49.3171],[6.9014,49.3251]]]},"properties":{"AGS":"10041515","GEN":"Püttlingen","SN_L":"10"}},
{"type":"Feature","geometry":{"type":"Polygon","coordinates":[[[7.0622,49.3304],[7.0606,49.3426],[7.0451,49.3501],[7.0239,49.3503],[7.0204,49.3497],[7.017,49.3369],[6.9936,49.3206],[7.0058,49.3128],[7.0159,49.2959],[7.0311,49.2969],[7.0362,49.3074],[7.0549,49.3154],[7.0622,49.3304]]]},"properties":{"AGS":"10041516","GEN":"Quierschied","SN_L":"10"}},
{"type":"Feature","geometry":{"type":"Polygon","coordinates":[[[6.9817,49.3217],[6.9677,49.3204],[6.947,49.3267],[6.9341,49.3241],[6.9118,49.3305],[6.9014,49.3251],[6.9102,49.3171],[6.9292,49.3134],[6.9282,49.293],[6.9233,49.2833],[6.952,49.2886],[6.9656,49.3129],[6.9817,49.3217]]]},"properties":{"AGS":"10041517","GEN":"Riegelsberg","SN_L":"10"}},
{"type":"Feature","geometry":{"type":"Polygon","coordinates":[[[7.117,49.3095],[7.1069,49.3156],[7.0676,49.3126],[7.0549,49.3154],[7.0362,49.3074],[7.0311,49.2969],[7.0542,49.287],[7.0626,49.2714],[7.0806,49.2744],[7.0869,49.2876],[7.0828,49.2946],[7.117,49.3095]]]},"properties":{"AGS":"10041518","GEN":"Sulzbach/Saar","SN_L":"10"}},
{"type":"Feature","geometry":{"type":"Polygon","coordinates":[[[6.8557,49.2721],[6.8251,49.2747],[6.8198,49.2697],[6.8235,49.256],[6.8106,49.2409],[6.7978,49.2398],[6.7821,49.2281],[6.767,49.2229],[6.7357,49.2265],[6.7235,49.2188],[6.7314,49.206],[6.7112,49.1883],[6.7203,49.1753],[6.7386,49.1637],[6.78,49.1684],[6.79,49.166],[6.776,49.1845],[6.7947,49.1924],[6.8248,49.214],[6.833,49.2142],[6.8274,49.2215],[6.8487,49.2328],[6.8787,49.2292],[6.8894,49.2443],[6.9083,49.247],[6.9043,49.2629],[6.8829,49.2657],[6.8763,49.274],[6.8557,49.2721]]]},"properties":{"AGS":"10041519","GEN":"Völklingen","SN_L":"10"}},
{"type":"Feature","geometry":{"type":"Polygon","coordinates":[[[6.7975,49.4587],[6.7835,49.4645],[6.7586,49.4544],[6.7445,49.4543],[6.7357,49.4626],[6.7156,49.4675],[6.7094,49.46],[6.7249,49.4457],[6.7168,49.4402],[6.709,49.4237],[6.6955,49.4138],[6.6898,49.402],[6.6783,49.3973],[6.662,49.3989],[6.6709,49.3895],[6.6937,49.382],[6.6964,49.3722],[6.7465,49.3952],[6.7634,49.4019],[6.782,49.4042],[6.7987,49.4158],[6.7896,49.4368],[6.7975,49.4587]]]},"properties":{"AGS":"10042111","GEN":"Beckingen","SN_L":"10"}},
{"type":"Feature","geometry":{"type":"Polygon","coordinates":[[[6.8103,49.5106],[6.7955,49.5074],[6.7933,49.5292],[6.7672,49.5582],[6.7569,49.5614],[6.7184,49.5554],[6.7086,49.5533],[6.7009,49.5423],[6.6842,49.5482],[6.6641,49.5427],[6.6528,49.5509],[6.6504,49.5495],[6.651,49.5434],[6.6575,49.541],[6.6336,49.5151],[6.6496,49.5044],[6.6505,49.4983],[6.6759,49.4945],[6.6958,49.4832],[6.6904,49.4762],[6.6938,49.4587],[6.7094,49.46],[6.7156,49.4675],[6.7357,49.4626],[6.7445,49.4543],[6.7586,49.4544],[6.7835,49.4645],[6.7975,49.4587],[6.8057,49.4698],[6.7995,49.4845],[6.8137,49.4895],[6.8063,49.4978],[6.8103,49.5106]]]},"properties":{"AGS":"10042112","GEN":"Losheim am See","SN_L":"10"}},
{"type":"Feature","geometry":{"type":"Polygon","coordinates":[[[6.7094,49.46],[6.6938,49.4587],[6.6904,49.4762],[6.6958,49.4832],[6.6759,49.4945],[6.6505,49.4983],[6.6496,49.5044],[6.6367,49.5006],[6.6427,49.4912],[6.609,49.4877],[6.5775,49.4785],[6.5524,49.4789],[6.5445,49.4599],[6.5078,49.4459],[6.5248,49.4354],[6.5344,49.4353],[6.557,49.4192],[6.5715,49.4181],[6.5866,49.3991],[6.5985,49.3976],[6.6426,49.4114],[6.662,49.3989],[6.6783,49.3973],[6.6898,49.402],[6.6955,49.4138],[6.709,49.4237],[6.7168,49.4402],[6.7249,49.4457],[6.7094,49.46]]]},"properties":{"AGS":"10042113","GEN":"Merzig","SN_L":"10"}},
{"type":"Feature","geometry":{"type":"Polygon","coordinates":[[[6.5149,49.5351],[6.4941,49.5306],[6.467,49.543],[6.4733,49.5335],[6.4488,49.5279],[6.4609,49.5195],[6.4921,49.5211],[6.5005,49.5039],[6.4888,49.4968],[6.4981,49.4844],[6.4861,49.4749],[6.4908,49.4648],[6.4847,49.4526],[6.5078,49.4459],[6.5445,49.4599],[6.5524,49.4789],[6.5775,49.4785],[6.609,49.4877],[6.6427,49.4912],[6.6367,49.5006],[6.6496,49.5044],[6.6336,49.5151],[6.6575,49.541],[6.651,49.5434],[6.617,49.5355],[6.6184,49.5295],[6.6036,49.518],[6.5884,49.5175],[6.564,49.5406],[6.5548,49.536],[6.5386,49.5395],[6.5229,49.5283],[6.5149,49.5351]]]},"properties":{"AGS":"10042114","GEN":"Mettlach","SN_L":"10"}},
{"type":"Feature","geometry":{"type":"Polygon","coordinates":[[[6.4245,49.5477],[6.3801,49.5511],[6.3579,49.533],[6.3656,49.5092],[6.369,49.4881],[6.3671,49.4695],[6.3934,49.4641],[6.4291,49.4762],[6.4405,49.4667],[6.4628,49.465],[6.4847,49.4526],[6.4908,49.4648],[6.4861,49.4749],[6.4981,49.4844],[6.4888,49.4968],[6.5005,49.5039],[6.4921,49.5211],[6.4609,49.5195],[6.4488,49.5279],[6.4733,49.5335],[6.467,49.543],[6.4495,49.542],[6.4245,49.5477]]]},"properties":{"AGS":"10042115","GEN":"Perl","SN_L":"10"}},
{"type":"Feature","geometry":{"type":"Polygon","coordinates":[[[6.9555,49.5118],[6.953,49.5331],[6.959,49.5424],[6.9545,49.5536],[6.963,49.5594],[6.9498,49.5739],[6.9584,49.586],[6.9535,49.5946],[6.9332,49.5995],[6.905,49.5918],[6.895,49.5976],[6.8915,49.6134],[6.88,49.6062],[6.8642,49.6079],[6.846,49.5896],[6.8391,49.5926],[6.8354,49.5829],[6.8302,49.5762],[6.8383,49.5566],[6.8378,49.5441],[6.8509,49.5296],[6.8227,49.5191],[6.8103,49.5106],[6.8063,49.4978],[6.8137,49.4895],[6.7995,49.4845],[6.8057,49.4698],[6.8211,49.469],[6.8534,49.4829],[6.875,49.4797],[6.9102,49.5017],[6.9555,49.5118]]]},"properties":{"AGS":"10042116","GEN":"Wadern","SN_L":"10"}},
{"type":"Feature","geometry":{"type":"Polygon","coordinates":[[[6.8243,49.5884],[6.8134,49.592],[6.7982,49.5863],[6.7782,49.5702],[6.7697,49.5689],[6.7569,49.5614],[6.7672,49.5582],[6.7933,49.5292],[6.7955,49.5074],[6.8103,49.5106],[6.8227,49.5191],[6.8509,49.5296],[6.8378,49.5441],[6.8383,49.5566],[6.8302,49.5762],[6.8354,49.5829],[6.8243,49.5884]]]},"properties":{"AGS":"10042117","GEN":"Weiskirchen","SN_L":"10"}},
{"type":"Feature","geometry":{"type":"Polygon","coordinates":[[[7.0547,49.4163],[7.0475,49.4265],[7.0324,49.4222],[6.9944,49.4378],[6.9893,49.4368],[6.9666,49.4321],[6.9521,49.4242],[6.9334,49.4269],[6.9169,49.4137],[6.9249,49.3995],[6.9387,49.3929],[6.9443,49.3777],[6.9586,49.3709],[6.9646,49.3567],[7.0001,49.359],[6.9936,49.3846],[7.0225,49.3974],[7.0239,49.4016],[7.0547,49.4163]]]},"properties":{"AGS":"10043111","GEN":"Eppelborn","SN_L":"10"}},
{"type":"Feature","geometry":{"type":"Polygon","coordinates":[[[7.0899,49.4147],[7.0603,49.4092],[7.0547,49.4163],[7.0239,49.4016],[7.0225,49.3974],[6.9936,49.3846],[7.0001,49.359],[7.0224,49.3588],[7.0204,49.3497],[7.0239,49.3503],[7.0406,49.3551],[7.0439,49.3623],[7.0696,49.3647],[7.0802,49.3794],[7.0986,49.3778],[7.0901,49.3894],[7.1243,49.3965],[7.1045,49.416],[7.0899,49.4147]]]},"properties":{"AGS":"10043112","GEN":"Illingen","SN_L":"10"}},
{"type":"Feature","geometry":{"type":"Polygon","coordinates":[[[7.0986,49.3778],[7.0802,49.3794],[7.0696,49.3647],[7.0439,49.3623],[7.0406,49.3551],[7.0239,49.3503],[7.0451,49.3501],[7.0606,49.3426],[7.0622,49.3304],[7.0865,49.3468],[7.0892,49.3628],[7.1004,49.368],[7.0986,49.3778]]]},"properties":{"AGS":"10043113","GEN":"Merchweiler","SN_L":"10"}},
{"type":"Feature","geometry":{"type":"Polygon","coordinates":[[[7.2617,49.3971],[7.2474,49.4065],[7.2368,49.397],[7.1924,49.3926],[7.1777,49.3848],[7.1635,49.3907],[7.152,49.3859],[7.1484,49.3696],[7.1368,49.3507],[7.1142,49.3363],[7.114,49.3241],[7.1476,49.3199],[7.1745,49.3239],[7.1874,49.3055],[7.1829,49.2873],[7.2292,49.2996],[7.2476,49.3073],[7.2394,49.3143],[7.2667,49.3232],[7.2443,49.33],[7.233,49.3407],[7.2424,49.3517],[7.2265,49.3608],[7.221,49.3694],[7.2617,49.3971]]]},"properties":{"AGS":"10043114","GEN":"Neunkirchen","SN_L":"10"}},
{"type":"Feature","geometry":{"type":"Polygon","coordinates":[[[7.2526,49.4315],[7.2241,49.4309],[7.2135,49.4394],[7.1926,49.4271],[7.149,49.4161],[7.1338,49.4204],[7.1205,49.4298],[7.1074,49.4283],[7.1012,49.42],[7.0899,49.4147],[7.1045,49.416],[7.1243,49.3965],[7.152,49.3859],[7.1635,49.3907],[7.1777,49.3848],[7.1924,49.3926],[7.2368,49.397],[7.2474,49.4065],[7.2617,49.3971],[7.2836,49.402],[7.2926,49.4082],[7.2901,49.4147],[7.2526,49.4315]]]},"properties":{"AGS":"10043115","GEN":"Ottweiler","SN_L":"10"}},
{"type":"Feature","geometry":{"type":"Polygon","coordinates":[[[7.1243,49.3965],[7.0901,49.3894],[7.0986,49.3778],[7.1004,49.368],[7.0892,49.3628],[7.0865,49.3468],[7.1142,49.3363],[7.1368,49.3507],[7.1484,49.3696],[7.152,49.3859],[7.1243,49.3965]]]},"properties":{"AGS":"10043116","GEN":"Schiffweiler","SN_L":"10"}},
{"type":"Feature","geometry":{"type":"Polygon","coordinates":[[[7.114,49.3241],[7.1069,49.3156],[7.117,49.3095],[7.1403,49.3011],[7.1652,49.298],[7.1874,49.3055],[7.1745,49.3239],[7.1476,49.3199],[7.114,49.3241]]]},"properties":{"AGS":"10043117","GEN":"Spiesen-Elversberg","SN_L":"10"}},
{"type":"Feature","geometry":{"type":"Polygon","coordinates":[[[6.7788,49.3692],[6.7653,49.3879],[6.7465,49.3952],[6.6964,49.3722],[6.6986,49.3595],[6.6897,49.347],[6.7197,49.3392],[6.7495,49.3521],[6.7636,49.3612],[6.7788,49.3692]]]},"properties":{"AGS":"10044111","GEN":"Dillingen/Saar","SN_L":"10"}},
{"type":"Feature","geometry":{"type":"Polygon","coordinates":[[[6.9893,49.4368],[6.9864,49.4482],[6.9751,49.4562],[6.9681,49.4802],[6.956,49.4851],[6.9359,49.4715],[6.9353,49.4664],[6.9057,49.4608],[6.8825,49.4605],[6.8793,49.4509],[6.8896,49.4378],[6.873,49.4327],[6.8648,49.4189],[6.8684,49.4078],[6.8578,49.3964],[6.8462,49.3926],[6.853,49.3799],[6.8654,49.3847],[6.8713,49.3719],[6.9157,49.3739],[6.922,49.368],[6.9443,49.3777],[6.9387,49.3929],[6.9249,49.3995],[6.9169,49.4137],[6.9334,49.4269],[6.9521,49.4242],[6.9666,49.4321],[6.9893,49.4368]]]},"properties":{"AGS":"10044112","GEN":"Lebach","SN_L":"10"}},
{"type":"Feature","geometry":{"type":"Polygon","coordinates":[[[6.8462,49.3926],[6.8411,49.3977],[6.8219,49.3939],[6.8149,49.4046],[6.7987,49.4158],[6.782,49.4042],[6.7634,49.4019],[6.7465,49.3952],[6.7653,49.3879],[6.7788,49.3692],[6.8027,49.3757],[6.8243,49.3694],[6.8379,49.3704],[6.853,49.3799],[6.8462,49.3926]]]},"properties":{"AGS":"10044113","GEN":"Nalbach","SN_L":"10"}},
{"type":"Feature","geometry":{"type":"Polygon","coordinates":[[[6.662,49.3989],[6.6426,49.4114],[6.5985,49.3976],[6.5866,49.3991],[6.5715,49.4181],[6.557,49.4192],[6.5373,49.4094],[6.5408,49.4013],[6.5636,49.3881],[6.5873,49.3844],[6.5831,49.3684],[6.6022,49.3671],[6.5897,49.3511],[6.5741,49.3587],[6.565,49.3494],[6.5956,49.3301],[6.6153,49.3425],[6.6548,49.3404],[6.6897,49.347],[6.6986,49.3595],[6.6964,49.3722],[6.6937,49.382],[6.6709,49.3895],[6.662,49.3989]]]},"properties":{"AGS":"10044114","GEN":"Rehlingen-Siersburg","SN_L":"10"}},
{"type":"Feature","geometry":{"type":"Polygon","coordinates":[[[6.8156,49.3335],[6.7796,49.3414],[6.7636,49.3612],[6.7495,49.3521],[6.7197,49.3392],[6.7317,49.3331],[6.7303,49.3242],[6.7029,49.3142],[6.686,49.3186],[6.6824,49.3072],[6.6909,49.3019],[6.7201,49.2976],[6.7116,49.2845],[6.7275,49.2728],[6.7626,49.2617],[6.7805,49.2744],[6.7747,49.2777],[6.7649,49.2897],[6.7651,49.3038],[6.7738,49.3092],[6.7717,49.3199],[6.7966,49.3208],[6.8156,49.3335]]]},"properties":{"AGS":"10044115","GEN":"Saarlouis","SN_L":"10"}},
{"type":"Feature","geometry":{"type":"Polygon","coordinates":[[[6.922,49.368],[6.9157,49.3739],[6.8713,49.3719],[6.8654,49.3847],[6.853,49.3799],[6.8379,49.3704],[6.8243,49.3694],[6.8027,49.3757],[6.7788,49.3692],[6.7636,49.3612],[6.7796,49.3414],[6.8156,49.3335],[6.8387,49.3333],[6.8568,49.317],[6.873,49.3257],[6.8753,49.3269],[6.8822,49.3312],[6.872,49.3455],[6.9037,49.3554],[6.922,49.368]]]},"properties":{"AGS":"10044116","GEN":"Saarwellingen","SN_L":"10"}},
{"type":"Feature","geometry":{"type":"Polygon","coordinates":[[[6.9359,49.4715],[6.9251,49.4688],[6.9108,49.4807],[6.9262,49.4884],[6.9102,49.5017],[6.875,49.4797],[6.8534,49.4829],[6.8211,49.469],[6.8057,49.4698],[6.7975,49.4587],[6.7896,49.4368],[6.7987,49.4158],[6.8149,49.4046],[6.8219,49.3939],[6.8411,49.3977],[6.8462,49.3926],[6.8578,49.3964],[6.8684,49.4078],[6.8648,49.4189],[6.873,49.4327],[6.8896,49.4378],[6.8793,49.4509],[6.8825,49.4605],[6.9057,49.4608],[6.9353,49.4664],[6.9359,49.4715]]]},"properties":{"AGS":"10044117","GEN":"Schmelz","SN_L":"10"}},
{"type":"Feature","geometry":{"type":"Polygon","coordinates":[[[6.873,49.3257],[6.8568,49.317],[6.8387,49.3333],[6.8156,49.3335],[6.7966,49.3208],[6.8043,49.3074],[6.7961,49.3032],[6.7833,49.286],[6.8251,49.2834],[6.8569,49.2858],[6.865,49.2875],[6.8796,49.3033],[6.8829,49.3165],[6.873,49.3257]]]},"properties":{"AGS":"10044118","GEN":"Schwalbach","SN_L":"10"}},
{"type":"Feature","geometry":{"type":"Polygon","coordinates":[[[6.7626,49.2617],[6.7275,49.2728],[6.7116,49.2845],[6.7201,49.2976],[6.6909,49.3019],[6.677,49.2845],[6.6601,49.2837],[6.6678,49.271],[6.6604,49.2612],[6.6907,49.2478],[6.6854,49.243],[6.6958,49.2153],[6.7197,49.2211],[6.7253,49.2416],[6.7365,49.2495],[6.756,49.2549],[6.7626,49.2617]]]},"properties":{"AGS":"10044119","GEN":"Überherrn","SN_L":"10"}},
{"type":"Feature","geometry":{"type":"Polygon","coordinates":[[[6.7235,49.2188],[6.7357,49.2265],[6.767,49.2229],[6.7821,49.2281],[6.7978,49.2398],[6.8106,49.2409],[6.8235,49.256],[6.8198,49.2697],[6.7805,49.2744],[6.7626,49.2617],[6.756,49.2549],[6.7365,49.2495],[6.7253,49.2416],[6.7197,49.2211],[6.7235,49.2188]]]},"properties":{"AGS":"10044120","GEN":"Wadgassen","SN_L":"10"}},
{"type":"Feature","geometry":{"type":"Polygon","coordinates":[[[6.6897,49.347],[6.6548,49.3404],[6.6153,49.3425],[6.5956,49.3301],[6.5891,49.3221],[6.6151,49.3013],[6.6601,49.2837],[6.677,49.2845],[6.6909,49.3019],[6.6824,49.3072],[6.686,49.3186],[6.7029,49.3142],[6.7303,49.3242],[6.7317,49.3331],[6.7197,49.3392],[6.6897,49.347]]]},"properties":{"AGS":"10044121","GEN":"Wallerfangen","SN_L":"10"}},
{"type":"Feature","geometry":{"type":"Polygon","coordinates":[[[6.8569,49.2858],[6.8251,49.2834],[6.7833,49.286],[6.7747,49.2777],[6.7805,49.2744],[6.8198,49.2697],[6.8251,49.2747],[6.8557,49.2721],[6.8569,49.2858]]]},"properties":{"AGS":"10044122","GEN":"Bous","SN_L":"10"}},
{"type":"Feature","geometry":{"type":"Polygon","coordinates":[[[6.7966,49.3208],[6.7717,49.3199],[6.7738,49.3092],[6.7651,49.3038],[6.7649,49.2897],[6.7747,49.2777],[6.7833,49.286],[6.7961,49.3032],[6.8043,49.3074],[6.7966,49.3208]]]},"properties":{"AGS":"10044123","GEN":"Ensdorf","SN_L":"10"}},
{"type":"Feature","geometry":{"type":"Polygon","coordinates":[[[7.2989,49.3985],[7.2926,49.4082],[7.2836,49.402],[7.2617,49.3971],[7.221,49.3694],[7.2265,49.3608],[7.2424,49.3517],[7.233,49.3407],[7.2443,49.33],[7.2667,49.3232],[7.2873,49.3304],[7.3007,49.3391],[7.3058,49.3592],[7.2845,49.3607],[7.2754,49.3756],[7.2796,49.3852],[7.303,49.3874],[7.2989,49.3985]]]},"properties":{"AGS":"10045111","GEN":"Bexbach","SN_L":"10"}},
{"type":"Feature","geometry":{"type":"Polygon","coordinates":[[[7.3122,49.257],[7.2987,49.2654],[7.3032,49.2744],[7.2839,49.2818],[7.3029,49.2905],[7.2861,49.2958],[7.2676,49.2824],[7.222,49.2667],[7.2115,49.2707],[7.1881,49.2597],[7.1782,49.251],[7.1862,49.2414],[7.1802,49.2247],[7.1809,49.2102],[7.1999,49.2116],[7.2021,49.1946],[7.23,49.1765],[7.25,49.1819],[7.2706,49.1722],[7.2828,49.1593],[7.2994,49.1535],[7.3005,49.1357],[7.3102,49.1294],[7.3155,49.1385],[7.3298,49.1448],[7.3627,49.1431],[7.3614,49.1534],[7.3688,49.1615],[7.3501,49.1628],[7.3359,49.1759],[7.3385,49.1844],[7.3203,49.1895],[7.3057,49.201],[7.2983,49.214],[7.3029,49.2233],[7.289,49.2306],[7.3122,49.257]]]},"properties":{"AGS":"10045112","GEN":"Blieskastel","SN_L":"10"}},
{"type":"Feature","geometry":{"type":"Polygon","coordinates":[[[7.2021,49.1946],[7.1801,49.1786],[7.1842,49.1634],[7.1609,49.1503],[7.1592,49.132],[7.1634,49.1269],[7.1836,49.13],[7.1963,49.1217],[7.2451,49.1301],[7.2657,49.1227],[7.2838,49.1234],[7.2984,49.1173],[7.3102,49.1294],[7.3005,49.1357],[7.2994,49.1535],[7.2828,49.1593],[7.2706,49.1722],[7.25,49.1819],[7.23,49.1765],[7.2021,49.1946]]]},"properties":{"AGS":"10045113","GEN":"Gersheim","SN_L":"10"}},
{"type":"Feature","geometry":{"type":"Polygon","coordinates":[[[7.303,49.3874],[7.2796,49.3852],[7.2754,49.3756],[7.2845,49.3607],[7.3058,49.3592],[7.3007,49.3391],[7.3166,49.3216],[7.2861,49.2958],[7.3029,49.2905],[7.2839,49.2818],[7.3032,49.2744],[7.2987,49.2654],[7.3122,49.257],[7.3159,49.2515],[7.3391,49.2639],[7.3415,49.2815],[7.3653,49.2781],[7.3854,49.2941],[7.3807,49.3067],[7.3945,49.3164],[7.3928,49.3283],[7.4,49.3367],[7.4038,49.3461],[7.3939,49.3541],[7.4021,49.3677],[7.3959,49.372],[7.3664,49.3634],[7.3691,49.374],[7.3558,49.3798],[7.3294,49.3802],[7.303,49.3874]]]},"properties":{"AGS":"10045114","GEN":"Homburg","SN_L":"10"}},
{"type":"Feature","geometry":{"type":"Polygon","coordinates":[[[7.3007,49.3391],[7.2873,49.3304],[7.2667,49.3232],[7.2394,49.3143],[7.2476,49.3073],[7.2292,49.2996],[7.1829,49.2873],[7.1904,49.2783],[7.1881,49.2597],[7.2115,49.2707],[7.222,49.2667],[7.2676,49.2824],[7.2861,49.2958],[7.3166,49.3216],[7.3007,49.3391]]]},"properties":{"AGS":"10045115","GEN":"Kirkel","SN_L":"10"}},
{"type":"Feature","geometry":{"type":"Polygon","coordinates":[[[7.2021,49.1946],[7.1999,49.2116],[7.1809,49.2102],[7.1802,49.2247],[7.1862,49.2414],[7.1782,49.251],[7.1404,49.2369],[7.1295,49.2403],[7.1225,49.2228],[7.1345,49.2116],[7.107,49.1883],[7.112,49.1762],[7.1194,49.1699],[7.1011,49.156],[7.1247,49.142],[7.1362,49.1283],[7.1558,49.1214],[7.1634,49.1269],[7.1592,49.132],[7.1609,49.1503],[7.1842,49.1634],[7.1801,49.1786],[7.2021,49.1946]]]},"properties":{"AGS":"10045116","GEN":"Mandelbachtal","SN_L":"10"}},
{"type":"Feature","geometry":{"type":"Polygon","coordinates":[[[7.117,49.3095],[7.0828,49.2946],[7.0869,49.2876],[7.0806,49.2744],[7.0626,49.2714],[7.0627,49.2615],[7.0763,49.2585],[7.0794,49.2498],[7.0923,49.2469],[7.1082,49.2563],[7.1295,49.2403],[7.1404,49.2369],[7.1782,49.251],[7.1881,49.2597],[7.1904,49.2783],[7.1829,49.2873],[7.1874,49.3055],[7.1652,49.298],[7.1403,49.3011],[7.117,49.3095]]]},"properties":{"AGS":"10045117","GEN":"St. Ingbert","SN_L":"10"}},
{"type":"Feature","geometry":{"type":"Polygon","coordinates":[[[7.2638,49.5706],[7.2687,49.5841],[7.2495,49.5744],[7.2408,49.569],[7.2244,49.5648],[7.2105,49.5687],[7.1696,49.5514],[7.1702,49.5462],[7.1759,49.5389],[7.2019,49.5382],[7.1984,49.5262],[7.2055,49.5077],[7.2185,49.511],[7.2556,49.4994],[7.2809,49.5055],[7.2857,49.5169],[7.3078,49.52],[7.3028,49.5345],[7.2761,49.5379],[7.2766,49.5486],[7.2746,49.5611],[7.2638,49.5706]]]},"properties":{"AGS":"10046111","GEN":"Freisen","SN_L":"10"}},
{"type":"Feature","geometry":{"type":"Polygon","coordinates":[[[7.0822,49.5015],[7.0751,49.5036],[7.0603,49.4943],[7.0431,49.4666],[7.0321,49.4617],[7.0264,49.45],[7.0084,49.4484],[6.9944,49.4378],[7.0324,49.4222],[7.0475,49.4265],[7.0547,49.4163],[7.0603,49.4092],[7.0899,49.4147],[7.1012,49.42],[7.0944,49.4415],[7.093,49.46],[7.0862,49.4822],[7.0682,49.4978],[7.0822,49.5015]]]},"properties":{"AGS":"10046112","GEN":"Marpingen","SN_L":"10"}},
{"type":"Feature","geometry":{"type":"Polygon","coordinates":[[[7.2055,49.5077],[7.1984,49.5262],[7.2019,49.5382],[7.1759,49.5389],[7.1702,49.5462],[7.1569,49.5385],[7.1418,49.5437],[7.1224,49.5278],[7.1295,49.5117],[7.1487,49.4983],[7.1508,49.486],[7.1651,49.4878],[7.1796,49.4989],[7.1949,49.5005],[7.2055,49.5077]]]},"properties":{"AGS":"10046113","GEN":"Namborn","SN_L":"10"}},
{"type":"Feature","geometry":{"type":"Polygon","coordinates":[[[7.0796,49.6121],[7.0591,49.6305],[7.028,49.6394],[7.0083,49.6295],[7.0203,49.6132],[7.0413,49.594],[6.9904,49.5641],[6.9939,49.5494],[7.0104,49.5377],[7.0156,49.5255],[7.0485,49.5237],[7.0695,49.5353],[7.0905,49.5395],[7.0894,49.5475],[7.1347,49.5484],[7.1418,49.5437],[7.1569,49.5385],[7.1702,49.5462],[7.1696,49.5514],[7.2105,49.5687],[7.21,49.5771],[7.1903,49.5771],[7.1728,49.588],[7.1737,49.5991],[7.1615,49.5985],[7.1461,49.6029],[7.136,49.5967],[7.1081,49.5988],[7.0796,49.6121]]]},"properties":{"AGS":"10046114","GEN":"Nohfelden","SN_L":"10"}},
{"type":"Feature","geometry":{"type":"Polygon","coordinates":[[[6.9915,49.6355],[6.9747,49.6339],[6.9494,49.6261],[6.9328,49.631],[6.9351,49.6194],[6.8915,49.6134],[6.895,49.5976],[6.905,49.5918],[6.9332,49.5995],[6.9535,49.5946],[6.9584,49.586],[6.9498,49.5739],[6.963,49.5594],[6.9545,49.5536],[6.959,49.5424],[6.953,49.5331],[6.9555,49.5118],[6.977,49.5103],[7.0156,49.5255],[7.0104,49.5377],[6.9939,49.5494],[6.9904,49.5641],[7.0413,49.594],[7.0203,49.6132],[7.0083,49.6295],[7.001,49.6309],[6.9915,49.6355]]]},"properties":{"AGS":"10046115","GEN":"Nonnweiler","SN_L":"10"}},
{"type":"Feature","geometry":{"type":"Polygon","coordinates":[[[7.1418,49.5437],[7.1347,49.5484],[7.0894,49.5475],[7.0905,49.5395],[7.0695,49.5353],[7.0485,49.5237],[7.0603,49.4943],[7.0751,49.5036],[7.0822,49.5015],[7.1154,49.5057],[7.1295,49.5117],[7.1224,49.5278],[7.1418,49.5437]]]},"properties":{"AGS":"10046116","GEN":"Oberthal","SN_L":"10"}},
{"type":"Feature","geometry":{"type":"Polygon","coordinates":[[[7.2055,49.5077],[7.1949,49.5005],[7.1796,49.4989],[7.1651,49.4878],[7.1508,49.486],[7.1487,49.4983],[7.1295,49.5117],[7.1154,49.5057],[7.0822,49.5015],[7.0682,49.4978],[7.0862,49.4822],[7.093,49.46],[7.0944,49.4415],[7.1012,49.42],[7.1074,49.4283],[7.1205,49.4298],[7.1338,49.4204],[7.149,49.4161],[7.1926,49.4271],[7.2135,49.4394],[7.2241,49.4309],[7.2526,49.4315],[7.2464,49.4455],[7.2869,49.4577],[7.2994,49.466],[7.3049,49.4742],[7.2968,49.4835],[7.2795,49.4837],[7.2871,49.4991],[7.2809,49.5055],[7.2556,49.4994],[7.2185,49.511],[7.2055,49.5077]]]},"properties":{"AGS":"10046117","GEN":"St. Wendel","SN_L":"10"}},
{"type":"Feature","geometry":{"type":"Polygon","coordinates":[[[7.0485,49.5237],[7.0156,49.5255],[6.977,49.5103],[6.9555,49.5118],[6.9102,49.5017],[6.9262,49.4884],[6.9108,49.4807],[6.9251,49.4688],[6.9359,49.4715],[6.956,49.4851],[6.9681,49.4802],[6.9751,49.4562],[6.9864,49.4482],[6.9893,49.4368],[6.9944,49.4378],[7.0084,49.4484],[7.0264,49.45],[7.0321,49.4617],[7.0431,49.4666],[7.0603,49.4943],[7.0485,49.5237]]]},"properties":{"AGS":"10046118","GEN":"Tholey","SN_L":"10"}}
]}